{"type":"FeatureCollection","features":[{"type":"Feature","properties":{"id":"ISNE","group":"ISNE"},"geometry":{"type":"Polygon","coordinates":[[[-68.327,47.36],[-68.032,47.243],[-67.79,47.033],[-67.798,45.751],[-67.434,45.54],[-67.474,45.283],[-67.355,45.167],[-67.166,45.177],[-66.98,44.855],[-67.196,44.644],[-67.391,44.669],[-67.538,44.493],[-67.848,44.563],[-67.837,44.463],[-68.028,44.358],[-68.276,44.495],[-68.197,44.236],[-68.626,44.181],[-68.68,44.279],[-68.978,44.387],[-68.932,44.298],[-69.036,44.076],[-69.284,43.873],[-69.338,43.963],[-69.788,43.741],[-70.199,43.754],[-70.203,43.647],[-70.573,43.285],[-70.818,42.853],[-70.717,42.664],[-70.926,42.462],[-70.959,42.247],[-70.764,42.244],[-70.48,41.766],[-70.275,41.725],[-70.004,41.796],[-70.027,41.939],[-70.066,41.936],[-70.102,42.059],[-70.042,42.024],[-69.986,41.95],[-69.943,41.829],[-69.945,41.679],[-70.109,41.658],[-70.523,41.549],[-70.656,41.536],[-70.627,41.662],[-70.681,41.726],[-70.991,41.512],[-71.211,41.565],[-71.553,41.374],[-72.359,41.268],[-72.975,41.234],[-73.659,40.994],[-73.727,41.101],[-73.504,41.237],[-73.547,41.333],[-73.482,42.154],[-73.277,42.752],[-73.252,43.557],[-73.371,43.727],[-73.428,44.037],[-73.302,44.42],[-73.381,44.604],[-73.338,44.919],[-73.407,45.005],[-71.506,45.013],[-71.421,45.149],[-71.281,45.279],[-71.148,45.249],[-71.016,45.343],[-70.908,45.247],[-70.689,45.573],[-70.408,45.732],[-70.264,45.957],[-70.311,46.072],[-70.238,46.241],[-70.055,46.417],[-69.943,46.749],[-69.248,47.435],[-69.054,47.417],[-69.065,47.29],[-68.98,47.315],[-68.906,47.19],[-68.389,47.301],[-68.327,47.36]]]}},{"type":"Feature","properties":{"id":"NYIS","group":"NYIS"},"geometry":{"type":"Polygon","coordinates":[[[-78.861,42.801],[-78.916,42.944],[-79.021,42.998],[-78.999,43.061],[-79.074,43.081],[-79.044,43.143],[-79.062,43.27],[-78.58,43.365],[-78.155,43.375],[-77.73,43.328],[-77.536,43.235],[-77.025,43.266],[-76.722,43.343],[-76.427,43.514],[-76.222,43.539],[-76.135,43.934],[-76.348,44.055],[-76.161,44.281],[-75.912,44.368],[-75.751,44.525],[-75.271,44.863],[-74.868,45.011],[-74.713,44.999],[-73.407,45.005],[-73.338,44.919],[-73.381,44.604],[-73.302,44.42],[-73.428,44.037],[-73.371,43.727],[-73.252,43.557],[-73.277,42.752],[-73.482,42.154],[-73.547,41.333],[-73.504,41.237],[-73.727,41.101],[-73.659,40.994],[-73.655,40.845],[-73.385,40.946],[-72.672,40.979],[-72.586,40.926],[-72.319,41.001],[-72.065,40.985],[-73.032,40.674],[-73.731,40.59],[-74.094,40.649],[-73.954,40.852],[-74.011,41.047],[-74.249,40.992],[-74.469,41.254],[-74.746,41.327],[-74.962,41.117],[-75.311,41.331],[-75.07,41.602],[-75.073,41.811],[-75.433,42.0],[-79.671,42.0],[-79.786,42.258],[-79.177,42.549],[-78.861,42.801]]]}},{"type":"Feature","properties":{"id":"PJM","group":"PJM"},"geometry":{"type":"MultiPolygon","coordinates":[[[[-76.553,35.438],[-76.654,35.706],[-76.985,35.658],[-77.341,35.816],[-77.37,35.945],[-77.208,36.059],[-77.637,36.468],[-77.943,36.544],[-80.857,36.558],[-81.675,36.592],[-82.219,36.697],[-82.245,36.596],[-82.637,36.431],[-82.824,36.705],[-82.853,36.871],[-82.979,36.987],[-83.166,36.904],[-83.487,36.898],[-83.562,36.969],[-83.811,36.749],[-84.293,36.592],[-85.261,36.653],[-85.301,36.949],[-85.571,36.994],[-85.701,36.845],[-85.935,36.803],[-86.147,36.979],[-86.035,37.181],[-86.053,37.496],[-86.237,37.586],[-86.05,37.808],[-85.765,37.938],[-85.783,38.067],[-85.69,38.023],[-85.387,38.177],[-85.301,38.345],[-85.416,38.552],[-85.377,38.731],[-85.186,38.652],[-84.991,38.778],[-84.898,38.724],[-84.786,38.883],[-84.815,39.711],[-84.88,39.843],[-84.811,40.043],[-85.2,39.998],[-85.261,39.789],[-85.506,39.787],[-85.575,39.946],[-85.863,40.009],[-85.863,40.45],[-85.996,40.646],[-86.021,40.842],[-85.945,41.042],[-85.801,41.012],[-85.654,41.178],[-85.747,41.436],[-86.089,41.479],[-86.277,41.354],[-86.525,41.497],[-86.485,41.605],[-86.82,41.683],[-86.611,41.904],[-86.251,42.419],[-85.301,42.42],[-85.294,41.785],[-85.197,41.751],[-85.164,41.526],[-84.804,41.562],[-84.804,41.696],[-84.361,41.738],[-84.361,42.074],[-83.422,42.094],[-83.206,42.011],[-83.44,41.769],[-83.379,41.686],[-82.993,41.536],[-82.777,41.536],[-82.5,41.381],[-81.996,41.514],[-81.694,41.514],[-81.345,41.729],[-80.34,42.034],[-79.786,42.258],[-79.671,42.0],[-75.433,42.0],[-75.073,41.811],[-75.07,41.602],[-75.311,41.331],[-74.962,41.117],[-74.746,41.327],[-74.469,41.254],[-74.249,40.992],[-74.011,41.047],[-73.954,40.852],[-74.094,40.649],[-74.202,40.629],[-74.094,40.441],[-73.993,40.463],[-73.99,40.257],[-74.339,39.431],[-74.515,39.338],[-74.865,38.939],[-74.965,38.967],[-74.897,39.167],[-75.369,39.351],[-75.372,39.044],[-75.185,38.803],[-75.052,38.506],[-75.106,38.322],[-75.261,38.203],[-75.603,37.714],[-75.811,37.238],[-76.024,37.263],[-75.941,37.563],[-75.725,37.775],[-75.657,37.964],[-75.844,38.028],[-76.035,38.325],[-76.279,38.405],[-76.308,38.797],[-76.463,38.923],[-76.553,38.738],[-76.517,38.534],[-76.387,38.362],[-76.477,38.313],[-76.326,38.067],[-76.456,38.04],[-76.182,37.87],[-76.33,37.499],[-76.251,37.436],[-76.503,37.234],[-76.297,37.131],[-76.233,36.944],[-75.988,36.905],[-75.876,36.587],[-75.999,36.44],[-75.826,36.353],[-75.75,36.156],[-76.078,36.197],[-76.215,36.042],[-75.988,35.889],[-75.927,35.969],[-75.66,35.847],[-75.75,35.607],[-75.948,35.534],[-76.071,35.371],[-76.269,35.309],[-76.553,35.438]],[[-76.495,36.085],[-76.29,36.122],[-76.29,36.224],[-76.495,36.368],[-76.495,36.085]],[[-84.718,37.9],[-84.617,37.938],[-84.293,37.852],[-84.261,37.954],[-84.268,38.164],[-84.667,38.343],[-84.869,38.353],[-84.941,38.18],[-84.718,37.9]],[[-84.718,37.9],[-84.858,37.642],[-84.693,37.487],[-84.628,37.575],[-84.718,37.9]],[[-86.035,37.602],[-85.87,37.639],[-85.96,37.745],[-86.035,37.602]]],[[[-86.77,40.563],[-86.748,40.738],[-86.524,40.734],[-86.524,40.693],[-86.374,40.691],[-86.376,40.434],[-86.692,40.433],[-86.696,40.56],[-86.77,40.563]]],[[[-86.694,40.215],[-86.695,39.864],[-87.091,39.866],[-87.092,40.214],[-86.694,40.215]]],[[[-87.526,41.65],[-87.526,40.935],[-88.131,40.976],[-88.329,40.67],[-88.573,40.636],[-88.714,40.826],[-89.067,40.696],[-89.171,40.926],[-89.308,40.965],[-89.027,41.397],[-89.178,41.489],[-89.855,41.454],[-89.999,41.5],[-90.186,41.419],[-90.172,41.638],[-90.266,41.772],[-90.096,42.057],[-90.24,42.254],[-90.291,42.508],[-87.799,42.483],[-87.832,42.286],[-87.67,42.028],[-87.526,41.65]]]]}},{"type":"Feature","properties":{"id":"MISO","group":"MISO"},"geometry":{"type":"MultiPolygon","coordinates":[[[[-88.732,36.833],[-88.915,36.942],[-89.11,36.912],[-89.25,37.064],[-89.347,37.027],[-89.463,37.205],[-89.769,37.297],[-89.747,37.51],[-90.572,37.631],[-91.068,37.588],[-91.097,37.835],[-90.748,37.924],[-90.698,38.659],[-90.561,38.794],[-90.712,39.05],[-90.726,39.252],[-91.302,39.68],[-91.428,39.837],[-91.511,40.123],[-91.385,40.387],[-91.36,40.601],[-91.155,40.653],[-91.371,40.87],[-91.371,41.161],[-91.828,41.28],[-91.824,41.161],[-92.174,41.162],[-92.224,41.008],[-92.634,41.161],[-93.239,41.191],[-93.326,41.008],[-93.333,40.73],[-93.722,40.623],[-94.272,40.616],[-94.668,40.732],[-94.91,40.73],[-95.126,40.579],[-95.756,40.591],[-95.885,40.747],[-95.882,41.151],[-94.928,41.158],[-94.931,41.504],[-94.242,41.504],[-94.28,41.864],[-94.629,41.862],[-94.629,42.208],[-95.324,42.211],[-95.327,42.561],[-94.442,42.559],[-94.442,43.276],[-94.06,43.346],[-94.049,43.499],[-96.444,43.494],[-96.45,44.544],[-96.602,45.327],[-96.483,45.496],[-96.587,46.247],[-96.771,46.601],[-97.325,46.621],[-97.527,46.446],[-98.006,46.214],[-98.121,46.283],[-98.034,46.631],[-97.746,46.631],[-97.682,46.752],[-97.707,47.24],[-98.344,47.24],[-98.499,47.536],[-98.898,47.743],[-98.902,47.847],[-98.546,47.847],[-98.384,47.672],[-97.97,47.672],[-97.883,47.76],[-97.905,48.119],[-98.002,48.195],[-98.412,48.195],[-98.636,47.931],[-98.801,48.052],[-99.071,48.047],[-99.071,48.108],[-99.201,48.157],[-99.203,48.37],[-98.973,48.37],[-98.971,48.716],[-99.002,48.716],[-99.002,49.0],[-95.15,48.999],[-95.154,49.381],[-94.816,49.267],[-94.704,48.823],[-94.554,48.719],[-93.819,48.607],[-93.798,48.512],[-93.466,48.56],[-93.254,48.643],[-92.634,48.543],[-92.458,48.414],[-92.371,48.229],[-92.298,48.248],[-92.284,48.353],[-92.03,48.326],[-91.691,48.119],[-91.308,48.082],[-90.896,48.239],[-90.764,48.094],[-90.456,48.109],[-90.024,48.085],[-89.682,47.944],[-89.981,47.83],[-90.489,47.714],[-91.05,47.451],[-91.461,47.134],[-92.012,46.835],[-91.99,46.695],[-91.374,46.792],[-90.964,46.963],[-90.798,46.968],[-90.766,46.706],[-90.582,46.598],[-90.068,46.664],[-89.783,46.819],[-89.459,46.838],[-88.959,47.008],[-88.901,47.089],[-88.44,47.353],[-87.94,47.481],[-87.879,47.396],[-88.231,47.199],[-88.44,46.977],[-88.44,46.781],[-88.098,46.918],[-87.796,46.881],[-87.609,46.788],[-87.31,46.492],[-86.982,46.532],[-86.899,46.469],[-86.608,46.493],[-86.14,46.674],[-85.506,46.676],[-85.103,46.759],[-85.035,46.489],[-84.523,46.433],[-84.225,46.533],[-84.117,46.336],[-84.214,46.164],[-84.095,46.148],[-84.045,45.964],[-84.343,45.949],[-84.57,46.032],[-84.779,45.806],[-84.973,45.987],[-85.47,46.094],[-85.643,45.988],[-85.945,45.932],[-86.251,45.949],[-86.374,45.789],[-86.683,45.839],[-86.842,45.72],[-87.159,45.667],[-87.58,45.171],[-87.652,44.976],[-87.843,44.918],[-88.005,44.654],[-87.915,44.551],[-87.609,44.839],[-87.403,44.905],[-87.141,45.192],[-87.058,45.094],[-87.317,44.79],[-87.799,43.718],[-87.702,43.693],[-87.904,43.275],[-87.839,42.864],[-87.767,42.79],[-87.799,42.483],[-90.291,42.508],[-90.24,42.254],[-90.096,42.057],[-90.266,41.772],[-90.172,41.638],[-90.186,41.419],[-89.999,41.5],[-89.855,41.454],[-89.178,41.489],[-89.027,41.397],[-89.308,40.965],[-89.171,40.926],[-89.067,40.696],[-88.714,40.826],[-88.573,40.636],[-88.329,40.67],[-88.131,40.976],[-87.526,40.935],[-87.526,41.65],[-87.299,41.632],[-86.82,41.683],[-86.485,41.605],[-86.525,41.497],[-86.277,41.354],[-86.089,41.479],[-85.747,41.436],[-85.654,41.178],[-85.801,41.012],[-85.945,41.042],[-86.021,40.842],[-85.996,40.646],[-85.863,40.45],[-85.863,40.009],[-85.575,39.946],[-85.506,39.787],[-85.261,39.789],[-85.2,39.998],[-84.811,40.043],[-84.88,39.843],[-84.815,39.711],[-84.786,38.883],[-84.898,38.724],[-84.991,38.778],[-85.186,38.652],[-85.377,38.731],[-85.416,38.552],[-85.711,38.282],[-85.877,38.206],[-85.783,38.067],[-86.1,38.007],[-86.05,37.808],[-86.327,37.479],[-86.813,37.559],[-86.95,37.326],[-87.115,37.472],[-87.382,37.313],[-87.583,37.334],[-87.724,37.177],[-88.08,37.125],[-88.203,36.995],[-88.483,36.942],[-88.534,37.042],[-88.714,36.946],[-88.732,36.833]],[[-86.376,40.434],[-86.374,40.691],[-86.524,40.693],[-86.524,40.734],[-86.748,40.738],[-86.77,40.563],[-86.696,40.56],[-86.692,40.433],[-86.376,40.434]],[[-87.092,40.214],[-87.091,39.866],[-86.695,39.864],[-86.694,40.215],[-87.092,40.214]]],[[[-84.779,45.806],[-84.617,45.845],[-84.091,45.496],[-83.487,45.353],[-83.325,45.187],[-83.418,45.016],[-83.267,44.714],[-83.332,44.318],[-83.573,44.102],[-83.911,43.9],[-83.926,43.695],[-83.627,43.621],[-83.44,43.839],[-83.217,43.982],[-82.911,44.063],[-82.731,43.973],[-82.623,43.797],[-82.479,43.094],[-82.42,43.003],[-82.577,42.559],[-82.759,42.664],[-82.882,42.406],[-83.08,42.309],[-83.206,42.011],[-83.422,42.094],[-84.361,42.074],[-84.361,41.738],[-84.804,41.696],[-84.804,41.562],[-85.164,41.526],[-85.197,41.751],[-85.294,41.785],[-85.301,42.42],[-86.251,42.419],[-86.208,42.692],[-86.269,43.117],[-86.521,43.578],[-86.449,43.767],[-86.518,44.068],[-86.266,44.355],[-86.266,44.712],[-86.021,44.903],[-85.819,44.945],[-85.683,45.131],[-85.6,44.976],[-85.38,45.046],[-85.38,45.25],[-85.107,45.374],[-85.013,45.759],[-84.779,45.806]]],[[[-83.649,45.947],[-83.803,45.987],[-83.591,46.093],[-83.649,45.947]]],[[[-88.53,48.123],[-88.692,48.004],[-88.735,48.095],[-88.53,48.123]]],[[[-88.962,47.877],[-89.16,47.824],[-89.175,47.936],[-88.984,48.006],[-88.962,47.877]]],[[[-89.153,29.29],[-89.117,29.078],[-89.315,29.083],[-89.365,29.264],[-89.347,29.38],[-89.153,29.29]]],[[[-90.824,36.073],[-90.726,35.966],[-90.467,35.965],[-90.302,36.098],[-90.23,35.996],[-89.74,36.001],[-89.664,35.876],[-89.956,35.709],[-89.909,35.515],[-90.096,35.361],[-90.168,35.437],[-90.503,35.442],[-90.507,35.185],[-90.309,34.994],[-90.212,35.026],[-89.988,34.994],[-89.725,34.69],[-89.819,34.63],[-90.215,34.724],[-90.244,34.34],[-90.158,34.279],[-90.302,34.11],[-90.309,33.9],[-89.999,33.794],[-89.859,33.86],[-89.491,33.752],[-89.365,33.475],[-89.455,33.286],[-89.319,33.286],[-89.319,33.108],[-89.445,32.931],[-89.553,32.952],[-89.527,33.183],[-89.779,33.181],[-89.646,32.99],[-89.733,32.929],[-89.729,32.672],[-90.024,32.4],[-89.956,32.324],[-89.743,32.416],[-89.729,32.095],[-89.653,31.78],[-89.974,31.754],[-89.959,31.408],[-90.006,31.133],[-89.772,30.882],[-89.844,30.691],[-89.625,30.249],[-89.635,30.12],[-89.851,29.974],[-89.689,29.868],[-89.434,30.036],[-89.279,29.848],[-89.632,29.711],[-89.693,29.604],[-89.542,29.327],[-89.743,29.333],[-90.071,29.502],[-90.042,29.199],[-90.24,29.131],[-90.46,29.337],[-90.618,29.297],[-90.734,29.136],[-91.058,29.181],[-91.155,29.357],[-91.277,29.249],[-91.324,29.448],[-91.637,29.644],[-91.652,29.745],[-91.9,29.834],[-92.188,29.717],[-92.123,29.638],[-92.292,29.533],[-92.602,29.576],[-93.21,29.775],[-93.765,29.73],[-94.686,29.466],[-94.737,29.79],[-94.917,29.695],[-95.144,30.289],[-95.36,30.504],[-95.331,30.814],[-95.201,30.824],[-94.802,31.131],[-94.506,31.046],[-94.182,31.129],[-94.337,31.261],[-94.308,31.56],[-94.373,31.651],[-93.83,31.581],[-93.542,31.183],[-93.57,30.877],[-92.876,30.877],[-92.829,31.198],[-92.98,31.339],[-92.796,31.455],[-92.544,31.41],[-92.487,31.598],[-92.624,31.815],[-92.85,31.796],[-92.879,32.016],[-93.038,32.016],[-93.196,32.214],[-93.207,32.354],[-93.39,32.629],[-93.538,32.968],[-94.042,33.064],[-94.042,33.2],[-93.869,33.247],[-93.959,33.476],[-93.808,33.543],[-93.552,33.794],[-93.56,34.006],[-93.974,34.139],[-94.053,34.73],[-93.714,34.783],[-93.851,34.962],[-93.538,35.05],[-93.441,35.196],[-93.236,35.196],[-93.236,35.348],[-93.052,35.407],[-92.984,35.661],[-93.07,35.724],[-92.958,35.998],[-93.329,36.122],[-93.296,36.498],[-90.248,36.497],[-90.068,36.305],[-90.291,36.201],[-90.723,36.268],[-90.824,36.073]]],[[[-90.464,46.996],[-90.597,46.867],[-90.672,46.95],[-90.464,46.996]]],[[[-94.272,34.637],[-94.46,34.555],[-94.452,34.787],[-94.226,34.774],[-94.272,34.637]]],[[[-94.485,33.638],[-94.47,34.159],[-94.37,34.252],[-94.38,33.689],[-94.485,33.638]]],[[[-95.018,29.549],[-94.877,29.293],[-95.025,29.171],[-95.234,29.466],[-95.018,29.549]]],[[[-104.306,46.642],[-104.608,46.694],[-104.604,46.861],[-104.306,47.043],[-104.374,47.26],[-104.201,47.359],[-104.201,47.682],[-104.044,47.684],[-104.046,46.642],[-104.306,46.642]]]]}},{"type":"Feature","properties":{"id":"SWPP","group":"SWPP"},"geometry":{"type":"MultiPolygon","coordinates":[[[[-99.203,48.37],[-99.201,48.157],[-99.071,48.108],[-99.071,48.047],[-98.801,48.052],[-98.636,47.931],[-98.412,48.195],[-98.002,48.195],[-97.905,48.119],[-97.883,47.76],[-97.97,47.672],[-98.384,47.672],[-98.546,47.847],[-98.902,47.847],[-98.898,47.743],[-98.499,47.536],[-98.344,47.24],[-97.707,47.24],[-97.682,46.752],[-97.746,46.631],[-98.034,46.631],[-98.121,46.283],[-98.006,46.214],[-97.527,46.446],[-97.325,46.621],[-96.771,46.601],[-96.587,46.247],[-96.483,45.496],[-96.602,45.327],[-96.854,45.615],[-96.58,45.817],[-96.564,45.934],[-98.724,45.939],[-98.722,45.244],[-99.575,45.246],[-99.573,44.899],[-100.402,44.899],[-100.597,44.754],[-100.594,44.557],[-99.664,44.549],[-99.665,44.312],[-99.5,44.053],[-99.402,44.026],[-99.41,43.746],[-99.248,43.499],[-97.607,43.5],[-97.61,43.849],[-97.369,43.849],[-97.37,44.195],[-96.457,44.197],[-96.444,43.494],[-94.049,43.499],[-94.06,43.346],[-94.442,43.276],[-94.442,42.559],[-95.327,42.561],[-95.324,42.211],[-94.629,42.208],[-94.629,41.862],[-94.28,41.864],[-94.242,41.504],[-94.931,41.504],[-94.928,41.158],[-95.882,41.151],[-95.885,40.747],[-95.756,40.591],[-96.065,40.46],[-95.997,40.261],[-95.486,40.248],[-95.421,40.059],[-95.064,39.863],[-94.892,39.834],[-95.108,39.574],[-94.859,39.275],[-94.467,39.253],[-94.355,39.15],[-94.157,39.17],[-94.24,38.835],[-94.607,38.818],[-94.618,36.5],[-93.296,36.498],[-93.329,36.122],[-92.958,35.998],[-93.07,35.724],[-92.984,35.661],[-93.052,35.407],[-93.236,35.348],[-93.236,35.196],[-93.441,35.196],[-93.538,35.05],[-93.851,34.962],[-93.714,34.783],[-94.053,34.73],[-93.974,34.139],[-93.56,34.006],[-93.552,33.794],[-93.808,33.543],[-93.959,33.476],[-93.869,33.247],[-94.042,33.2],[-94.042,33.064],[-93.538,32.968],[-93.39,32.629],[-93.207,32.354],[-93.196,32.214],[-93.038,32.016],[-92.879,32.016],[-92.85,31.796],[-92.624,31.815],[-92.487,31.598],[-92.544,31.41],[-92.796,31.455],[-92.98,31.339],[-92.829,31.198],[-92.876,30.877],[-93.57,30.877],[-93.542,31.183],[-93.83,31.581],[-93.887,31.865],[-94.06,31.979],[-94.6,31.973],[-94.564,32.4],[-94.888,32.37],[-95.154,32.585],[-95.125,33.384],[-94.841,33.383],[-94.748,33.505],[-94.784,33.742],[-95.147,33.937],[-95.334,33.877],[-95.738,33.897],[-96.396,33.738],[-96.936,33.954],[-97.12,33.717],[-97.253,33.865],[-97.451,33.828],[-97.71,33.953],[-97.887,33.854],[-98.157,34.121],[-98.358,34.156],[-98.422,34.082],[-98.424,33.836],[-98.952,33.834],[-98.956,34.201],[-99.194,34.237],[-99.381,34.455],[-99.654,34.375],[-100.0,34.562],[-100.0,36.055],[-101.087,36.058],[-101.086,35.182],[-102.168,35.183],[-102.17,34.749],[-101.999,34.749],[-101.998,34.313],[-102.616,34.312],[-102.596,33.389],[-102.076,33.388],[-102.075,32.959],[-101.692,32.962],[-101.696,32.088],[-101.775,32.088],[-101.776,31.652],[-102.286,31.653],[-102.286,32.086],[-103.064,32.086],[-103.064,32.002],[-104.848,32.0],[-104.851,32.52],[-104.158,33.875],[-104.172,34.285],[-104.612,34.449],[-104.795,34.675],[-104.457,35.149],[-104.385,35.405],[-103.902,35.689],[-103.725,35.423],[-103.638,35.421],[-103.636,35.241],[-103.858,35.242],[-103.859,35.263],[-104.124,35.142],[-104.129,34.605],[-103.708,34.605],[-103.506,34.691],[-103.28,34.954],[-103.042,34.954],[-103.041,35.621],[-102.163,35.627],[-102.164,36.5],[-102.032,36.501],[-102.052,40.004],[-101.325,40.003],[-101.325,40.351],[-100.778,40.35],[-100.781,40.7],[-100.224,40.701],[-100.236,41.395],[-100.71,41.395],[-100.707,41.742],[-100.844,41.74],[-100.847,42.089],[-100.169,42.113],[-100.231,43.712],[-100.709,43.718],[-101.145,43.995],[-102.012,43.994],[-102.0,45.039],[-102.957,45.037],[-102.943,45.945],[-104.043,45.945],[-104.045,47.328],[-103.1,47.329],[-103.1,47.674],[-102.643,47.676],[-102.643,47.825],[-102.574,48.004],[-102.83,48.186],[-102.828,48.372],[-102.884,48.374],[-102.887,48.633],[-104.046,48.634],[-104.046,48.203],[-104.298,48.055],[-104.838,48.117],[-104.946,48.072],[-105.519,48.073],[-105.843,48.01],[-105.801,48.561],[-106.019,48.565],[-106.019,48.999],[-99.002,49.0],[-99.002,48.716],[-98.971,48.716],[-98.973,48.37],[-99.203,48.37]],[[-94.434,35.385],[-94.467,35.594],[-94.805,35.638],[-94.791,36.109],[-95.086,36.036],[-95.406,36.043],[-95.403,36.355],[-95.759,36.393],[-95.432,36.646],[-95.356,36.889],[-95.453,36.999],[-96.155,36.999],[-96.191,36.151],[-96.008,36.046],[-96.108,35.903],[-96.72,35.942],[-96.692,36.265],[-96.962,36.268],[-96.918,36.411],[-97.102,36.411],[-97.113,36.27],[-97.642,36.184],[-97.502,35.833],[-97.394,35.829],[-97.394,35.587],[-97.307,35.447],[-97.134,35.501],[-97.131,35.739],[-96.447,35.681],[-96.45,35.408],[-95.666,35.229],[-96.044,35.105],[-96.09,34.8],[-95.684,34.711],[-94.456,34.668],[-94.46,34.555],[-94.272,34.637],[-94.226,34.774],[-94.452,34.787],[-94.434,35.385]],[[-94.47,34.159],[-94.485,33.638],[-94.38,33.689],[-94.37,34.252],[-94.47,34.159]],[[-97.08,41.4],[-96.907,41.457],[-96.905,41.743],[-97.254,41.743],[-97.253,41.385],[-97.08,41.4]],[[-97.368,40.699],[-97.368,41.047],[-97.827,41.047],[-97.826,40.698],[-97.368,40.699]],[[-97.368,40.699],[-97.368,40.351],[-96.915,40.35],[-96.914,40.698],[-97.368,40.699]],[[-101.865,46.981],[-101.685,47.242],[-101.325,47.287],[-101.454,47.562],[-101.868,47.504],[-102.207,47.575],[-102.146,47.328],[-102.146,46.981],[-101.865,46.981]]],[[[-96.602,45.327],[-96.45,44.544],[-97.856,44.544],[-97.856,44.631],[-97.977,44.633],[-97.962,45.154],[-97.227,45.152],[-97.227,45.298],[-97.008,45.297],[-96.993,45.327],[-96.602,45.327]]]]}},{"type":"Feature","properties":{"id":"ERCO","group":"ERCO"},"geometry":{"type":"Polygon","coordinates":[[[-97.39,27.773],[-97.228,27.652],[-97.376,27.267],[-97.476,27.251],[-97.39,27.063],[-97.487,27.036],[-97.52,26.812],[-97.419,26.521],[-97.235,26.321],[-97.296,26.188],[-97.156,25.949],[-97.444,25.868],[-97.8,26.059],[-98.207,26.067],[-98.44,26.206],[-98.672,26.236],[-98.823,26.371],[-99.021,26.408],[-99.168,26.571],[-99.255,26.803],[-99.446,27.043],[-99.37,27.32],[-99.503,27.34],[-99.579,27.608],[-99.712,27.67],[-99.817,27.762],[-99.806,27.772],[-100.076,28.154],[-100.285,28.264],[-100.396,28.593],[-100.624,28.928],[-100.67,29.116],[-101.037,29.46],[-101.185,29.535],[-101.355,29.684],[-101.404,29.778],[-102.109,29.804],[-102.322,29.894],[-102.392,29.769],[-102.682,29.744],[-102.923,29.191],[-103.146,28.985],[-103.312,29.025],[-103.794,29.277],[-104.101,29.369],[-104.543,29.705],[-104.68,29.967],[-104.68,30.193],[-104.977,30.631],[-104.916,30.664],[-104.919,32.0],[-103.064,32.002],[-103.064,32.086],[-102.286,32.086],[-102.286,31.653],[-101.776,31.652],[-101.775,32.088],[-101.696,32.088],[-101.692,32.962],[-102.075,32.959],[-102.076,33.388],[-102.596,33.389],[-102.616,34.312],[-101.998,34.313],[-101.999,34.749],[-102.17,34.749],[-102.168,35.183],[-101.086,35.182],[-101.087,36.058],[-100.0,36.055],[-100.0,34.562],[-99.654,34.375],[-99.381,34.455],[-99.194,34.237],[-98.956,34.201],[-98.952,33.834],[-98.424,33.836],[-98.422,34.082],[-98.358,34.156],[-98.157,34.121],[-97.887,33.854],[-97.71,33.953],[-97.451,33.828],[-97.253,33.865],[-97.12,33.717],[-96.936,33.954],[-96.396,33.738],[-95.738,33.897],[-95.334,33.877],[-95.147,33.937],[-94.784,33.742],[-94.748,33.505],[-94.841,33.383],[-95.125,33.384],[-95.154,32.585],[-94.888,32.37],[-94.564,32.4],[-94.6,31.973],[-94.06,31.979],[-93.887,31.865],[-93.83,31.581],[-94.373,31.651],[-94.308,31.56],[-94.337,31.261],[-94.182,31.129],[-94.506,31.046],[-94.802,31.131],[-95.201,30.824],[-95.331,30.814],[-95.36,30.504],[-95.144,30.289],[-94.917,29.695],[-95.018,29.549],[-95.234,29.466],[-95.025,29.171],[-95.345,28.904],[-95.939,28.612],[-96.231,28.592],[-96.436,28.735],[-96.522,28.556],[-96.335,28.433],[-96.623,28.273],[-96.836,28.389],[-96.702,28.211],[-97.026,28.112],[-97.163,27.765],[-97.39,27.773]]]}},{"type":"Feature","properties":{"id":"CISO","group":"CISO"},"geometry":{"type":"Polygon","coordinates":[[[-123.393,41.161],[-123.429,40.988],[-123.598,40.931],[-123.544,40.736],[-123.544,40.002],[-123.004,39.977],[-123.037,40.364],[-122.903,40.321],[-121.672,40.447],[-121.06,40.435],[-120.909,40.192],[-120.725,40.308],[-120.247,40.101],[-120.11,39.939],[-120.124,39.708],[-120.002,39.664],[-120.001,38.998],[-117.346,37.109],[-114.791,35.131],[-114.965,35.003],[-114.965,34.555],[-114.515,34.565],[-114.188,34.355],[-114.155,34.259],[-114.325,34.137],[-114.512,33.911],[-114.562,33.516],[-114.706,33.379],[-114.706,33.18],[-114.875,33.43],[-115.127,33.429],[-115.667,33.858],[-115.772,34.036],[-116.337,34.033],[-116.409,33.948],[-116.337,33.699],[-116.441,33.642],[-116.823,33.686],[-116.877,33.485],[-116.456,33.427],[-116.323,33.583],[-116.207,33.429],[-116.283,33.041],[-116.103,32.831],[-116.107,32.619],[-117.125,32.532],[-117.139,32.634],[-117.259,32.733],[-117.262,32.935],[-117.471,33.296],[-118.396,33.931],[-118.187,34.133],[-118.317,34.286],[-118.544,34.318],[-118.659,34.169],[-118.648,34.037],[-119.149,34.11],[-119.3,34.275],[-119.566,34.415],[-119.879,34.406],[-120.488,34.485],[-120.625,34.635],[-120.639,35.132],[-120.826,35.196],[-120.866,35.379],[-121.276,35.666],[-121.503,36.002],[-121.895,36.314],[-121.946,36.616],[-121.798,36.826],[-121.942,36.975],[-122.147,36.978],[-122.378,37.181],[-122.515,37.559],[-122.509,37.787],[-122.471,37.811],[-122.384,37.798],[-122.352,37.716],[-122.374,37.628],[-122.156,37.513],[-122.116,37.519],[-122.143,37.563],[-122.165,37.673],[-122.241,37.709],[-122.332,37.794],[-122.339,37.9],[-122.397,37.9],[-122.433,37.967],[-122.293,38.028],[-122.285,38.049],[-122.303,38.095],[-122.405,38.121],[-122.451,38.112],[-122.478,38.082],[-122.495,38.03],[-122.444,37.988],[-122.483,37.965],[-122.478,37.943],[-122.498,37.928],[-122.439,37.882],[-122.476,37.849],[-122.471,37.832],[-122.508,37.819],[-122.756,37.935],[-123.098,38.403],[-123.728,38.931],[-123.692,39.027],[-123.811,39.303],[-123.785,39.608],[-123.843,39.806],[-124.037,40.04],[-124.361,40.277],[-124.387,40.486],[-124.167,40.819],[-124.163,41.102],[-123.994,41.464],[-123.479,41.34],[-123.393,41.161]],[[-118.094,37.237],[-118.31,37.281],[-118.306,37.173],[-118.583,37.124],[-118.436,37.038],[-118.234,36.467],[-118.141,36.421],[-118.072,36.132],[-117.856,36.129],[-117.604,36.292],[-117.737,36.466],[-117.885,36.468],[-118.094,37.237]],[[-120.589,37.632],[-120.369,37.629],[-120.805,37.97],[-121.089,37.921],[-121.089,37.741],[-121.197,37.493],[-121.453,37.403],[-121.42,37.301],[-121.204,37.369],[-120.887,37.361],[-120.689,37.426],[-120.589,37.632]],[[-121.467,38.26],[-121.071,38.292],[-121.071,38.608],[-121.276,38.795],[-121.557,38.737],[-121.503,38.446],[-121.604,38.27],[-121.467,38.26]]]}},{"type":"Feature","properties":{"id":"TVA","group":"TVA"},"geometry":{"type":"Polygon","coordinates":[[[-85.438,34.622],[-85.488,34.415],[-85.38,34.418],[-85.449,34.216],[-85.402,33.984],[-85.737,33.99],[-85.845,34.19],[-86.183,34.183],[-86.302,34.1],[-86.446,34.249],[-86.946,33.867],[-87.288,33.996],[-87.38,34.302],[-88.173,34.32],[-88.39,32.579],[-88.915,32.577],[-89.178,32.517],[-89.272,32.334],[-89.445,32.344],[-89.455,32.61],[-89.743,32.416],[-89.956,32.324],[-90.024,32.4],[-89.729,32.672],[-89.733,32.929],[-89.646,32.99],[-89.779,33.181],[-89.527,33.183],[-89.553,32.952],[-89.445,32.931],[-89.319,33.108],[-89.319,33.286],[-89.455,33.286],[-89.365,33.475],[-89.491,33.752],[-89.859,33.86],[-89.999,33.794],[-90.309,33.9],[-90.302,34.11],[-90.158,34.279],[-90.244,34.34],[-90.215,34.724],[-89.819,34.63],[-89.725,34.69],[-89.988,34.994],[-90.212,35.026],[-90.096,35.361],[-89.909,35.515],[-89.956,35.709],[-89.664,35.876],[-89.74,36.001],[-89.592,36.141],[-89.668,36.208],[-89.517,36.351],[-89.571,36.549],[-89.193,36.634],[-89.088,36.746],[-88.732,36.833],[-88.714,36.946],[-88.534,37.042],[-88.483,36.942],[-88.203,36.995],[-88.08,37.125],[-87.724,37.177],[-87.544,37.08],[-87.231,37.14],[-86.95,37.326],[-86.813,37.559],[-86.327,37.479],[-86.237,37.586],[-86.053,37.496],[-86.035,37.181],[-86.147,36.979],[-85.935,36.803],[-85.701,36.845],[-85.571,36.994],[-85.301,36.949],[-85.261,36.653],[-84.293,36.592],[-83.811,36.749],[-83.692,36.583],[-82.853,36.871],[-82.824,36.705],[-82.637,36.431],[-82.245,36.596],[-82.219,36.697],[-81.675,36.592],[-81.726,36.365],[-82.079,36.106],[-82.345,36.251],[-82.594,36.053],[-82.889,35.949],[-83.163,36.149],[-83.317,35.892],[-83.253,35.696],[-83.634,35.57],[-83.825,35.524],[-83.915,35.474],[-84.113,35.249],[-84.217,35.268],[-84.311,35.079],[-84.246,34.989],[-83.753,34.987],[-83.645,34.889],[-83.692,34.8],[-84.181,34.612],[-84.311,34.801],[-84.549,34.856],[-84.685,34.682],[-84.707,34.413],[-85.265,34.401],[-85.265,34.605],[-85.438,34.622]],[[-85.438,34.622],[-85.395,34.983],[-85.603,34.984],[-85.56,34.75],[-85.438,34.622]]]}},{"type":"Feature","properties":{"id":"SOCO","group":"SOCO"},"geometry":{"type":"MultiPolygon","coordinates":[[[[-85.56,34.75],[-85.603,34.984],[-85.395,34.983],[-85.438,34.622],[-85.56,34.75]]],[[[-85.438,34.622],[-85.265,34.605],[-85.265,34.401],[-84.707,34.413],[-84.685,34.682],[-84.549,34.856],[-84.311,34.801],[-84.181,34.612],[-83.692,34.8],[-83.645,34.889],[-83.62,34.987],[-83.278,34.973],[-83.292,34.654],[-82.849,34.423],[-82.72,34.153],[-82.587,34.124],[-82.594,34.02],[-82.27,33.768],[-82.147,33.598],[-81.769,33.263],[-81.712,33.121],[-81.528,33.04],[-81.337,32.564],[-81.147,32.346],[-81.114,32.152],[-81.006,32.21],[-80.779,32.012],[-81.049,31.689],[-81.19,31.4],[-81.219,31.199],[-81.352,31.038],[-81.355,30.738],[-81.431,30.67],[-81.921,30.817],[-82.018,30.791],[-82.018,30.492],[-82.129,30.363],[-82.23,30.416],[-82.23,30.518],[-82.461,30.584],[-82.612,30.529],[-82.727,30.6],[-84.624,30.701],[-84.876,30.727],[-85.024,31.0],[-85.467,30.997],[-85.495,30.83],[-85.384,30.524],[-85.387,30.302],[-85.726,30.245],[-85.737,30.464],[-85.974,30.402],[-86.071,30.439],[-86.212,30.522],[-86.554,30.389],[-86.961,30.368],[-87.022,30.547],[-87.324,30.318],[-87.411,30.419],[-87.54,30.28],[-87.835,30.249],[-87.929,30.651],[-88.026,30.754],[-88.105,30.379],[-88.465,30.325],[-88.879,30.392],[-89.272,30.363],[-89.437,30.127],[-89.625,30.249],[-89.844,30.691],[-89.772,30.882],[-90.006,31.133],[-89.959,31.408],[-89.974,31.754],[-89.653,31.78],[-89.729,32.095],[-89.743,32.416],[-89.455,32.61],[-89.445,32.344],[-89.272,32.334],[-89.178,32.517],[-88.915,32.577],[-88.39,32.579],[-88.173,34.32],[-87.38,34.302],[-87.288,33.996],[-86.946,33.867],[-86.446,34.249],[-86.302,34.1],[-86.183,34.183],[-85.845,34.19],[-85.737,33.99],[-85.402,33.984],[-85.449,34.216],[-85.38,34.418],[-85.488,34.415],[-85.438,34.622]]],[[[-85.06,29.877],[-85.305,29.745],[-85.463,30.006],[-85.625,30.066],[-85.391,30.202],[-85.143,30.2],[-85.017,29.99],[-85.06,29.877]]]]}},{"type":"Feature","properties":{"id":"BPAT","group":"BPAT"},"geometry":{"type":"MultiPolygon","coordinates":[[[[-107.91,45.001],[-106.011,44.993],[-106.009,44.564],[-107.232,44.558],[-107.672,44.68],[-107.91,45.001]]],[[[-111.045,43.331],[-111.056,44.667],[-110.667,44.667],[-110.365,44.553],[-110.134,44.234],[-110.055,43.939],[-110.059,43.409],[-110.343,43.29],[-110.75,43.235],[-111.045,43.331]]],[[[-117.033,49.0],[-114.726,48.992],[-114.634,48.734],[-114.886,48.574],[-114.847,48.226],[-115.019,48.226],[-114.991,47.984],[-115.156,48.017],[-115.282,47.89],[-115.48,47.919],[-115.718,48.252],[-116.02,48.183],[-116.049,48.503],[-116.783,48.501],[-116.786,48.848],[-117.032,48.846],[-117.033,49.0]]],[[[-117.979,45.896],[-117.748,45.861],[-117.727,45.514],[-117.478,45.165],[-117.626,44.993],[-117.842,45.058],[-118.036,45.003],[-118.519,44.996],[-118.655,45.34],[-118.429,45.355],[-118.119,45.486],[-117.979,45.896]]],[[[-119.368,46.742],[-118.227,46.739],[-118.216,46.639],[-118.587,46.53],[-118.774,46.291],[-119.077,46.207],[-119.249,46.32],[-119.289,46.532],[-119.455,46.679],[-119.368,46.742]]],[[[-118.871,48.654],[-118.846,48.017],[-118.925,47.946],[-119.08,48.139],[-119.289,48.115],[-119.368,48.435],[-118.994,48.442],[-118.997,48.607],[-118.871,48.654]]],[[[-119.671,44.995],[-119.656,44.307],[-119.811,44.308],[-120.099,44.438],[-120.358,44.437],[-120.394,44.786],[-120.495,45.068],[-119.79,45.068],[-119.79,44.995],[-119.671,44.995]]],[[[-121.524,46.388],[-121.524,46.045],[-119.866,46.041],[-119.869,45.859],[-120.211,45.726],[-120.592,45.746],[-121.132,45.61],[-121.312,45.7],[-121.813,45.706],[-122.043,45.61],[-122.295,45.544],[-122.767,45.656],[-122.72,45.869],[-122.345,45.959],[-122.246,46.056],[-122.24,46.385],[-121.524,46.388]]],[[[-120.798,48.992],[-120.122,48.992],[-119.883,48.225],[-120.099,48.302],[-120.322,48.126],[-120.553,48.308],[-120.689,48.575],[-120.798,48.992]]],[[[-120.085,47.333],[-120.085,47.233],[-119.937,46.669],[-120.283,46.736],[-120.319,47.079],[-120.596,47.111],[-120.851,47.273],[-120.679,47.352],[-120.391,47.26],[-120.085,47.333]]],[[[-122.367,48.152],[-122.435,48.261],[-122.335,48.298],[-121.445,48.296],[-121.06,48.382],[-120.927,48.162],[-121.096,48.065],[-121.157,47.876],[-121.251,47.78],[-121.885,47.777],[-121.921,47.876],[-121.723,47.964],[-122.007,47.98],[-122.032,48.16],[-122.367,48.152]]],[[[-123.958,46.284],[-123.973,46.486],[-123.886,46.749],[-124.099,46.797],[-123.998,46.981],[-124.174,46.993],[-124.243,47.293],[-124.408,47.682],[-124.671,47.983],[-124.721,48.388],[-124.052,48.178],[-123.008,48.089],[-122.95,47.867],[-122.813,47.843],[-122.986,47.607],[-123.375,47.608],[-123.505,47.518],[-123.489,47.084],[-123.202,47.084],[-123.206,47.0],[-123.162,46.999],[-123.159,46.794],[-123.371,46.792],[-123.357,46.384],[-123.217,46.386],[-123.212,46.174],[-123.12,46.186],[-122.961,46.104],[-122.813,45.906],[-122.929,45.7],[-123.166,45.626],[-123.263,45.685],[-123.361,45.808],[-123.389,46.15],[-123.479,46.266],[-123.595,46.187],[-123.958,46.284]]],[[[-123.461,45.254],[-123.487,45.447],[-123.321,45.593],[-123.227,45.231],[-123.461,45.254]]],[[[-124.48,42.954],[-124.16,42.883],[-124.127,42.671],[-123.85,42.79],[-123.775,42.701],[-124.037,42.37],[-123.847,42.299],[-123.836,41.995],[-124.207,41.931],[-124.408,42.269],[-124.405,42.595],[-124.516,42.76],[-124.48,42.954]]]]}},{"type":"Feature","properties":{"id":"AVA","group":"PNW"},"geometry":{"type":"Polygon","coordinates":[[[-118.836,48.992],[-117.033,49.0],[-117.032,48.846],[-116.786,48.848],[-116.783,48.501],[-116.049,48.503],[-116.02,48.183],[-115.718,48.252],[-115.48,47.919],[-115.282,47.89],[-115.156,48.017],[-114.991,47.984],[-114.991,47.873],[-114.605,47.811],[-114.584,47.602],[-114.328,47.562],[-114.202,47.323],[-114.256,47.12],[-114.645,47.267],[-114.969,47.313],[-115.019,47.409],[-115.52,47.496],[-115.693,47.415],[-115.322,47.256],[-114.915,46.827],[-114.577,46.638],[-114.375,46.666],[-114.443,46.194],[-114.519,46.124],[-114.411,45.952],[-114.541,45.801],[-114.595,45.534],[-114.793,45.507],[-114.623,45.275],[-114.695,45.197],[-115.995,45.205],[-116.301,45.111],[-116.398,45.268],[-116.693,45.257],[-116.783,45.079],[-117.183,45.081],[-117.478,45.165],[-117.727,45.514],[-117.748,45.861],[-117.979,45.896],[-117.899,45.999],[-117.604,45.999],[-117.611,46.291],[-117.737,46.472],[-117.961,46.592],[-118.216,46.639],[-118.227,46.739],[-119.368,46.742],[-119.347,46.913],[-118.976,46.911],[-118.976,47.714],[-118.925,47.946],[-118.846,48.017],[-118.871,48.654],[-118.836,48.992]]]}},{"type":"Feature","properties":{"id":"CHPD","group":"PNW"},"geometry":{"type":"Polygon","coordinates":[[[-121.157,47.876],[-121.096,48.065],[-120.927,48.162],[-121.06,48.382],[-121.049,48.487],[-120.689,48.575],[-120.553,48.308],[-120.322,48.126],[-119.915,47.894],[-120.178,47.764],[-120.311,47.491],[-120.085,47.333],[-120.391,47.26],[-120.679,47.352],[-121.089,47.572],[-121.157,47.876]]]}},{"type":"Feature","properties":{"id":"DOPD","group":"PNW"},"geometry":{"type":"Polygon","coordinates":[[[-120.122,48.992],[-118.836,48.992],[-118.871,48.654],[-118.997,48.607],[-118.994,48.442],[-119.368,48.435],[-119.289,48.115],[-119.08,48.139],[-118.925,47.946],[-119.105,47.961],[-119.343,47.612],[-119.599,47.441],[-119.897,47.393],[-120.085,47.233],[-120.085,47.333],[-120.311,47.491],[-120.178,47.764],[-119.915,47.894],[-120.322,48.126],[-120.099,48.302],[-119.883,48.225],[-120.122,48.992]]]}},{"type":"Feature","properties":{"id":"GCPD","group":"PNW"},"geometry":{"type":"Polygon","coordinates":[[[-118.925,47.946],[-118.976,47.714],[-118.976,46.911],[-119.347,46.913],[-119.368,46.742],[-119.455,46.679],[-119.836,46.625],[-119.937,46.669],[-120.085,47.233],[-119.897,47.393],[-119.599,47.441],[-119.343,47.612],[-119.105,47.961],[-118.925,47.946]]]}},{"type":"Feature","properties":{"id":"PACW","group":"PNW"},"geometry":{"type":"MultiPolygon","coordinates":[[[[-123.037,40.364],[-122.695,40.576],[-122.741,40.666],[-122.597,40.974],[-122.453,41.114],[-122.587,41.357],[-122.95,41.185],[-122.914,41.001],[-123.393,41.161],[-123.479,41.34],[-123.994,41.464],[-124.225,41.829],[-124.207,41.931],[-123.836,41.995],[-123.847,42.299],[-124.037,42.37],[-123.775,42.701],[-123.85,42.79],[-124.127,42.671],[-124.16,42.883],[-124.48,42.954],[-124.394,43.319],[-124.207,43.385],[-124.268,43.475],[-124.163,43.83],[-124.016,45.066],[-123.973,45.158],[-123.958,46.284],[-123.595,46.187],[-123.479,46.266],[-123.389,46.15],[-123.361,45.808],[-123.263,45.685],[-123.321,45.593],[-123.487,45.447],[-123.461,45.254],[-123.721,45.177],[-123.605,44.966],[-122.993,45.013],[-123.047,44.78],[-122.871,44.878],[-122.392,44.888],[-121.795,44.946],[-121.669,45.119],[-121.726,45.394],[-122.043,45.61],[-121.813,45.706],[-121.312,45.7],[-121.132,45.61],[-120.592,45.746],[-120.211,45.726],[-119.869,45.859],[-119.866,46.041],[-121.524,46.045],[-121.524,46.388],[-121.388,46.628],[-121.489,46.913],[-121.363,47.071],[-121.262,47.083],[-121.013,46.911],[-120.635,46.831],[-120.509,46.738],[-120.283,46.736],[-119.937,46.669],[-119.836,46.625],[-119.455,46.679],[-119.289,46.532],[-119.249,46.32],[-119.077,46.207],[-118.774,46.291],[-118.587,46.53],[-118.216,46.639],[-117.961,46.592],[-117.737,46.472],[-117.611,46.291],[-117.604,45.999],[-117.899,45.999],[-117.979,45.896],[-118.119,45.486],[-118.429,45.355],[-118.655,45.34],[-118.547,45.095],[-118.652,44.998],[-119.79,44.995],[-119.79,45.068],[-120.495,45.068],[-120.394,44.786],[-120.358,44.437],[-120.099,44.438],[-119.811,44.308],[-119.656,44.307],[-119.656,43.959],[-119.775,43.959],[-119.777,43.698],[-119.897,43.698],[-119.944,42.746],[-119.365,42.749],[-119.357,41.993],[-119.303,41.326],[-119.339,40.002],[-119.224,39.999],[-119.17,39.68],[-119.663,39.508],[-119.678,39.281],[-120.005,39.166],[-120.002,39.664],[-120.124,39.708],[-120.11,39.939],[-120.247,40.101],[-120.725,40.308],[-120.909,40.192],[-121.06,40.435],[-121.672,40.447],[-122.903,40.321],[-123.037,40.364]]],[[[-122.813,45.906],[-122.961,46.104],[-123.12,46.186],[-123.212,46.174],[-123.217,46.386],[-122.24,46.385],[-122.246,46.056],[-122.345,45.959],[-122.72,45.869],[-122.813,45.906]]]]}},{"type":"Feature","properties":{"id":"PGE","group":"PNW"},"geometry":{"type":"Polygon","coordinates":[[[-123.263,45.685],[-123.166,45.626],[-122.929,45.7],[-122.813,45.906],[-122.72,45.869],[-122.767,45.656],[-122.295,45.544],[-122.043,45.61],[-121.726,45.394],[-121.669,45.119],[-121.795,44.946],[-122.392,44.888],[-122.871,44.878],[-123.047,44.78],[-122.993,45.013],[-123.605,44.966],[-123.721,45.177],[-123.461,45.254],[-123.227,45.231],[-123.321,45.593],[-123.263,45.685]]]}},{"type":"Feature","properties":{"id":"PSEI","group":"PNW"},"geometry":{"type":"MultiPolygon","coordinates":[[[[-120.679,47.352],[-120.851,47.273],[-120.596,47.111],[-120.319,47.079],[-120.283,46.736],[-120.509,46.738],[-120.635,46.831],[-121.013,46.911],[-121.262,47.083],[-121.363,47.071],[-121.438,47.386],[-121.089,47.572],[-120.679,47.352]]],[[[-122.536,48.239],[-122.702,48.492],[-122.425,48.6],[-122.536,48.776],[-122.723,48.731],[-122.788,48.932],[-122.752,48.992],[-120.798,48.992],[-120.689,48.575],[-121.049,48.487],[-121.06,48.382],[-121.445,48.296],[-122.335,48.298],[-122.536,48.239]]],[[[-122.394,47.778],[-122.367,48.152],[-122.032,48.16],[-122.007,47.98],[-121.723,47.964],[-121.921,47.876],[-122.054,47.775],[-122.394,47.778]]],[[[-123.159,46.794],[-123.162,46.999],[-123.206,47.0],[-123.202,47.084],[-122.95,47.174],[-122.749,47.19],[-122.399,46.844],[-122.583,46.764],[-123.159,46.794]]],[[[-122.986,47.607],[-122.813,47.843],[-122.95,47.867],[-123.008,48.089],[-122.914,48.129],[-122.507,47.844],[-122.633,47.721],[-122.515,47.445],[-122.713,47.403],[-122.986,47.607]]]]}},{"type":"Feature","properties":{"id":"SCL","group":"PNW"},"geometry":{"type":"Polygon","coordinates":[[[-122.29,47.777],[-122.237,47.634],[-122.28,47.469],[-122.362,47.461],[-122.416,47.574],[-122.338,47.599],[-122.434,47.661],[-122.371,47.725],[-122.394,47.778],[-122.29,47.777]]]}},{"type":"Feature","properties":{"id":"TPWR","group":"PNW"},"geometry":{"type":"Polygon","coordinates":[[[-123.202,47.084],[-123.489,47.084],[-123.505,47.518],[-123.375,47.608],[-122.986,47.607],[-122.713,47.403],[-122.515,47.445],[-122.28,47.469],[-122.237,47.634],[-122.29,47.777],[-122.054,47.775],[-121.921,47.876],[-121.885,47.777],[-121.251,47.78],[-121.157,47.876],[-121.089,47.572],[-121.438,47.386],[-121.363,47.071],[-121.489,46.913],[-121.388,46.628],[-121.524,46.388],[-123.357,46.384],[-123.371,46.792],[-122.583,46.764],[-122.399,46.844],[-122.749,47.19],[-122.95,47.174],[-123.202,47.084]]]}},{"type":"Feature","properties":{"id":"IPCO","group":"RMGB"},"geometry":{"type":"Polygon","coordinates":[[[-117.478,45.165],[-117.183,45.081],[-116.783,45.079],[-116.693,45.257],[-116.398,45.268],[-116.301,45.111],[-115.995,45.205],[-114.695,45.197],[-114.623,45.275],[-114.793,45.507],[-114.595,45.534],[-114.303,45.471],[-113.972,45.7],[-113.803,45.592],[-113.705,45.3],[-113.493,45.079],[-113.475,44.895],[-113.191,44.799],[-113.003,44.45],[-112.813,44.377],[-112.813,44.231],[-113.417,44.234],[-113.446,43.806],[-113.698,43.645],[-113.677,43.528],[-113.363,43.285],[-112.946,43.285],[-112.697,43.622],[-112.582,43.627],[-112.481,43.425],[-111.877,43.366],[-111.589,43.232],[-111.596,43.02],[-112.085,42.971],[-112.139,42.778],[-111.963,42.679],[-111.895,42.332],[-112.1,42.27],[-112.193,42.001],[-119.357,41.993],[-119.365,42.749],[-119.944,42.746],[-119.897,43.698],[-119.777,43.698],[-119.775,43.959],[-119.656,43.959],[-119.671,44.995],[-118.652,44.998],[-118.547,45.095],[-118.519,44.996],[-118.036,45.003],[-117.842,45.058],[-117.626,44.993],[-117.478,45.165]]]}},{"type":"Feature","properties":{"id":"NEVP","group":"RMGB"},"geometry":{"type":"Polygon","coordinates":[[[-114.791,35.131],[-117.346,37.109],[-120.001,38.998],[-120.005,39.166],[-119.678,39.281],[-119.663,39.508],[-119.17,39.68],[-119.224,39.999],[-119.339,40.002],[-119.303,41.326],[-119.357,41.993],[-114.046,41.991],[-114.04,41.0],[-112.799,41.0],[-112.492,41.077],[-112.262,40.769],[-112.179,40.048],[-112.031,39.781],[-111.869,39.907],[-111.715,39.813],[-111.747,39.428],[-111.959,39.366],[-112.013,39.059],[-112.229,38.837],[-112.255,38.705],[-112.55,38.574],[-114.05,38.573],[-114.047,36.211],[-114.163,36.026],[-114.429,36.136],[-114.746,36.096],[-114.677,35.498],[-114.58,35.209],[-114.627,35.12],[-114.791,35.131]]]}},{"type":"Feature","properties":{"id":"NWMT","group":"RMGB"},"geometry":{"type":"MultiPolygon","coordinates":[[[[-104.367,46.469],[-104.306,46.642],[-104.046,46.642],[-104.046,46.397],[-104.367,46.469]]],[[[-104.219,45.53],[-104.219,45.75],[-104.054,45.75],[-104.122,45.467],[-104.219,45.53]]],[[[-112.251,48.057],[-112.697,47.911],[-112.697,47.704],[-112.827,47.704],[-112.827,47.383],[-112.705,47.267],[-111.578,47.297],[-111.578,47.091],[-110.185,47.141],[-110.17,46.947],[-110.415,46.944],[-110.429,46.771],[-110.03,46.775],[-110.023,46.675],[-110.397,46.619],[-110.267,46.526],[-109.896,46.53],[-109.886,46.404],[-110.167,46.416],[-110.17,46.259],[-109.763,46.148],[-109.688,45.962],[-109.331,46.058],[-109.032,45.985],[-109.115,45.622],[-108.942,45.529],[-108.698,45.523],[-108.676,45.376],[-108.453,45.334],[-108.075,45.38],[-107.938,45.53],[-107.938,45.855],[-107.823,45.952],[-107.434,45.969],[-107.441,45.792],[-106.862,45.695],[-106.955,45.812],[-106.876,46.064],[-106.592,46.007],[-106.592,45.793],[-106.34,45.793],[-106.286,46.224],[-106.052,46.227],[-106.048,46.477],[-105.494,46.819],[-104.705,47.06],[-104.414,47.359],[-104.306,47.043],[-104.604,46.861],[-104.608,46.694],[-104.727,46.495],[-105.18,46.429],[-105.173,46.21],[-104.856,46.154],[-105.008,45.786],[-105.004,45.534],[-105.17,45.345],[-105.047,45.238],[-105.036,45.001],[-108.539,45.001],[-108.593,44.819],[-108.55,44.079],[-108.791,44.079],[-108.914,43.904],[-109.317,43.824],[-109.475,43.949],[-109.745,43.827],[-110.055,43.939],[-110.134,44.234],[-110.365,44.553],[-110.667,44.667],[-111.056,44.667],[-111.052,44.561],[-111.43,44.72],[-111.913,44.145],[-112.125,44.058],[-112.625,44.058],[-112.694,43.972],[-112.996,44.007],[-112.996,44.234],[-112.813,44.231],[-112.813,44.377],[-113.003,44.45],[-113.191,44.799],[-113.475,44.895],[-113.493,45.079],[-113.705,45.3],[-113.803,45.592],[-113.972,45.7],[-114.303,45.471],[-114.595,45.534],[-114.541,45.801],[-114.411,45.952],[-114.519,46.124],[-114.443,46.194],[-114.375,46.666],[-114.577,46.638],[-114.915,46.827],[-115.322,47.256],[-115.693,47.415],[-115.52,47.496],[-115.019,47.409],[-114.969,47.313],[-114.645,47.267],[-114.256,47.12],[-114.202,47.323],[-114.328,47.562],[-114.584,47.602],[-114.605,47.811],[-114.991,47.873],[-115.019,48.226],[-114.847,48.226],[-114.886,48.574],[-114.634,48.734],[-114.726,48.992],[-106.019,48.999],[-106.019,48.565],[-105.801,48.561],[-105.843,48.01],[-106.404,48.057],[-106.52,47.836],[-106.746,47.707],[-107.114,47.651],[-107.42,47.688],[-107.826,47.544],[-108.053,47.594],[-108.701,47.627],[-109.011,47.826],[-109.277,47.795],[-109.641,47.627],[-110.512,47.627],[-110.516,47.795],[-110.797,47.794],[-111.164,47.889],[-111.171,48.12],[-111.542,48.261],[-111.689,48.059],[-112.251,48.057]],[[-110.696,46.877],[-110.912,46.777],[-110.793,46.653],[-110.696,46.877]]]]}},{"type":"Feature","properties":{"id":"PACE","group":"RMGB"},"geometry":{"type":"MultiPolygon","coordinates":[[[[-107.91,45.001],[-107.672,44.68],[-107.232,44.558],[-106.009,44.564],[-106.018,43.495],[-104.9,43.499],[-104.892,42.609],[-104.655,42.609],[-104.655,41.653],[-105.278,41.656],[-105.278,40.998],[-106.887,41.004],[-106.887,41.22],[-107.92,41.225],[-107.924,41.002],[-110.001,40.994],[-110.001,40.869],[-109.835,40.769],[-109.536,40.826],[-109.482,40.739],[-109.202,40.859],[-109.047,40.577],[-109.061,38.501],[-109.043,38.153],[-109.045,36.998],[-107.499,36.997],[-107.618,36.805],[-107.625,36.001],[-107.308,35.962],[-107.308,35.736],[-107.924,35.709],[-107.841,35.394],[-108.114,35.334],[-108.114,35.461],[-108.356,35.581],[-108.615,35.571],[-108.669,35.274],[-109.05,35.223],[-109.047,34.861],[-109.331,34.929],[-109.227,35.025],[-109.335,35.129],[-109.803,35.196],[-111.283,35.168],[-111.322,35.567],[-111.589,35.704],[-111.671,35.636],[-111.801,36.005],[-112.33,36.139],[-112.445,36.125],[-112.543,35.942],[-112.791,36.142],[-112.892,35.816],[-113.158,35.495],[-113.702,35.345],[-113.713,35.089],[-113.957,35.162],[-113.853,35.253],[-113.907,35.51],[-113.615,35.527],[-113.605,35.679],[-113.335,35.603],[-113.331,35.783],[-113.651,35.873],[-113.939,36.169],[-114.047,36.211],[-114.05,38.573],[-112.55,38.574],[-112.255,38.705],[-112.229,38.837],[-112.013,39.059],[-111.959,39.366],[-111.747,39.428],[-111.715,39.813],[-111.869,39.907],[-112.031,39.781],[-112.179,40.048],[-112.262,40.769],[-112.492,41.077],[-112.799,41.0],[-114.04,41.0],[-114.046,41.991],[-112.193,42.001],[-112.1,42.27],[-111.895,42.332],[-111.963,42.679],[-112.139,42.778],[-112.085,42.971],[-111.596,43.02],[-111.589,43.232],[-111.877,43.366],[-112.481,43.425],[-112.582,43.627],[-112.697,43.622],[-112.946,43.285],[-113.363,43.285],[-113.677,43.528],[-113.698,43.645],[-113.446,43.806],[-113.417,44.234],[-112.996,44.234],[-112.996,44.007],[-112.694,43.972],[-112.625,44.058],[-112.125,44.058],[-111.913,44.145],[-111.43,44.72],[-111.052,44.561],[-111.045,43.331],[-110.75,43.235],[-110.343,43.29],[-110.059,43.409],[-110.055,43.939],[-109.745,43.827],[-109.475,43.949],[-109.317,43.824],[-108.914,43.904],[-108.791,44.079],[-108.55,44.079],[-108.593,44.819],[-108.539,45.001],[-107.91,45.001]],[[-110.087,38.501],[-111.758,38.511],[-111.848,38.425],[-111.844,38.151],[-109.932,38.159],[-109.94,38.353],[-110.087,38.501]],[[-110.753,37.54],[-112.904,37.545],[-112.9,37.001],[-111.405,37.005],[-110.93,37.155],[-110.858,37.349],[-110.757,37.337],[-110.753,37.54]]],[[[-113.669,34.671],[-113.565,34.715],[-113.468,34.522],[-113.669,34.671]]]]}},{"type":"Feature","properties":{"id":"PSCO","group":"RMGB"},"geometry":{"type":"MultiPolygon","coordinates":[[[[-108.791,41.001],[-107.924,41.002],[-107.92,41.225],[-106.887,41.22],[-106.887,41.004],[-106.772,41.004],[-106.682,40.873],[-106.635,39.902],[-106.487,39.925],[-106.304,39.751],[-105.944,39.713],[-105.724,39.896],[-105.681,40.245],[-105.908,40.528],[-105.756,40.73],[-105.666,40.51],[-105.454,40.51],[-105.537,40.397],[-105.396,40.172],[-105.126,40.204],[-105.083,40.294],[-104.993,40.161],[-105.155,40.058],[-104.932,39.889],[-104.079,39.925],[-104.086,39.75],[-103.722,39.75],[-103.73,39.58],[-104.039,39.588],[-104.504,39.273],[-104.738,39.268],[-104.885,38.864],[-104.669,38.781],[-104.579,38.468],[-104.327,38.524],[-104.331,38.343],[-104.054,38.25],[-103.719,38.325],[-103.582,38.459],[-103.6,38.184],[-103.481,38.27],[-103.164,38.273],[-103.395,38.097],[-103.405,37.645],[-103.539,37.643],[-103.539,37.442],[-103.65,37.44],[-104.064,38.048],[-104.475,38.048],[-104.702,38.386],[-105.087,38.386],[-105.134,38.274],[-105.461,38.166],[-105.396,38.662],[-105.843,38.694],[-105.976,38.911],[-106.17,39.007],[-106.203,39.13],[-106.325,38.933],[-106.487,38.93],[-106.502,39.07],[-107.286,39.059],[-107.517,39.228],[-107.708,39.099],[-107.974,39.079],[-108.374,38.827],[-108.438,38.406],[-109.061,38.501],[-109.05,39.578],[-108.471,39.733],[-107.913,39.759],[-107.895,39.9],[-107.52,39.897],[-107.646,40.073],[-107.571,40.188],[-107.646,40.377],[-108.222,40.322],[-108.23,40.216],[-108.597,40.216],[-108.784,40.315],[-108.791,41.001]]],[[[-105.083,40.294],[-105.162,40.4],[-105.065,40.619],[-105.011,40.378],[-105.083,40.294]]],[[[-105.011,40.378],[-104.838,40.524],[-104.831,40.746],[-104.716,40.745],[-104.532,40.554],[-104.399,40.579],[-104.446,40.73],[-104.219,40.693],[-104.421,40.372],[-104.64,40.395],[-104.705,40.238],[-104.849,40.238],[-105.011,40.378]]],[[[-106.26,37.576],[-106.073,37.735],[-106.03,37.598],[-106.26,37.576]]],[[[-106.26,37.576],[-106.325,37.304],[-106.062,37.207],[-105.818,37.263],[-105.717,37.004],[-106.631,36.999],[-106.714,37.533],[-106.61,37.535],[-106.854,37.838],[-106.764,38.096],[-106.455,38.309],[-106.253,38.347],[-106.386,38.628],[-106.145,38.632],[-105.929,38.526],[-105.839,38.25],[-105.994,38.224],[-105.994,38.076],[-106.242,37.914],[-106.581,37.841],[-106.44,37.575],[-106.26,37.576]]],[[[-106.03,37.598],[-105.918,37.746],[-105.825,37.56],[-105.587,37.572],[-105.468,37.729],[-105.227,37.655],[-105.159,37.324],[-105.155,37.072],[-105.036,36.992],[-104.057,36.995],[-104.007,36.905],[-104.028,36.218],[-104.759,36.218],[-105.245,36.262],[-105.332,36.323],[-105.353,36.63],[-105.234,36.79],[-105.22,36.995],[-105.393,36.995],[-105.393,37.234],[-105.526,37.344],[-105.9,37.439],[-106.03,37.598]]],[[[-105.278,40.998],[-105.022,40.994],[-105.022,40.892],[-105.224,40.889],[-105.278,40.998]]],[[[-105.72,40.998],[-105.555,40.998],[-105.461,40.873],[-105.731,40.833],[-105.72,40.998]]],[[[-107.279,37.676],[-107.142,37.814],[-106.912,37.568],[-107.218,37.589],[-107.279,37.676]]],[[[-107.279,37.676],[-107.488,37.648],[-107.492,37.785],[-107.279,37.676]]],[[[-107.142,37.814],[-107.232,37.937],[-107.056,37.978],[-107.142,37.814]]]]}},{"type":"Feature","properties":{"id":"WACM","group":"RMGB"},"geometry":{"type":"MultiPolygon","coordinates":[[[[-96.602,45.327],[-96.993,45.327],[-97.008,45.297],[-97.227,45.298],[-97.227,45.152],[-97.962,45.154],[-97.977,44.633],[-97.856,44.631],[-97.856,44.544],[-96.45,44.544],[-96.457,44.197],[-97.37,44.195],[-97.369,43.849],[-97.61,43.849],[-97.607,43.5],[-99.248,43.499],[-99.41,43.746],[-99.402,44.026],[-99.5,44.053],[-99.665,44.312],[-99.664,44.549],[-100.594,44.557],[-100.597,44.754],[-100.402,44.899],[-99.573,44.899],[-99.575,45.246],[-98.722,45.244],[-98.724,45.939],[-96.564,45.934],[-96.58,45.817],[-96.854,45.615],[-96.602,45.327]]],[[[-97.08,41.4],[-97.253,41.385],[-97.254,41.743],[-96.905,41.743],[-96.907,41.457],[-97.08,41.4]]],[[[-97.368,40.699],[-97.826,40.698],[-97.827,41.047],[-97.368,41.047],[-97.368,40.699]]],[[[-97.368,40.699],[-96.914,40.698],[-96.915,40.35],[-97.368,40.351],[-97.368,40.699]]],[[[-105.278,40.998],[-105.278,41.656],[-104.655,41.653],[-104.655,42.609],[-104.892,42.609],[-104.9,43.499],[-106.018,43.495],[-106.011,44.993],[-104.04,44.998],[-104.039,45.212],[-102.961,45.211],[-102.957,45.037],[-102.0,45.039],[-102.012,43.994],[-101.145,43.995],[-100.709,43.718],[-100.231,43.712],[-100.169,42.113],[-100.847,42.089],[-100.844,41.74],[-100.707,41.742],[-100.71,41.395],[-100.236,41.395],[-100.224,40.701],[-100.781,40.7],[-100.778,40.35],[-101.325,40.351],[-101.325,40.003],[-102.052,40.004],[-102.042,36.993],[-103.086,37.001],[-103.077,37.645],[-103.405,37.645],[-103.395,38.097],[-103.164,38.273],[-103.481,38.27],[-103.6,38.184],[-103.582,38.459],[-103.719,38.325],[-104.054,38.25],[-104.331,38.343],[-104.327,38.524],[-104.579,38.468],[-104.669,38.781],[-104.885,38.864],[-104.738,39.268],[-104.504,39.273],[-104.039,39.588],[-103.73,39.58],[-103.722,39.75],[-104.086,39.75],[-104.079,39.925],[-104.932,39.889],[-105.155,40.058],[-104.993,40.161],[-105.083,40.294],[-105.126,40.204],[-105.396,40.172],[-105.537,40.397],[-105.454,40.51],[-105.666,40.51],[-105.756,40.73],[-105.908,40.528],[-105.681,40.245],[-105.724,39.896],[-105.944,39.713],[-106.304,39.751],[-106.487,39.925],[-106.635,39.902],[-106.682,40.873],[-106.772,41.004],[-105.72,40.998],[-105.731,40.833],[-105.461,40.873],[-105.555,40.998],[-105.278,40.998]],[[-105.083,40.294],[-105.011,40.378],[-105.065,40.619],[-105.162,40.4],[-105.083,40.294]],[[-105.011,40.378],[-104.849,40.238],[-104.705,40.238],[-104.64,40.395],[-104.421,40.372],[-104.219,40.693],[-104.446,40.73],[-104.399,40.579],[-104.532,40.554],[-104.716,40.745],[-104.831,40.746],[-104.838,40.524],[-105.011,40.378]],[[-105.278,40.998],[-105.224,40.889],[-105.022,40.892],[-105.022,40.994],[-105.278,40.998]]],[[[-101.454,47.562],[-101.325,47.287],[-101.685,47.242],[-101.865,46.981],[-102.146,46.981],[-102.146,47.328],[-102.207,47.575],[-101.868,47.504],[-101.454,47.562]]],[[[-106.631,36.999],[-109.045,36.998],[-109.043,38.153],[-109.061,38.501],[-108.438,38.406],[-108.374,38.827],[-107.974,39.079],[-107.708,39.099],[-107.517,39.228],[-107.286,39.059],[-106.502,39.07],[-106.487,38.93],[-106.325,38.933],[-106.203,39.13],[-106.17,39.007],[-105.976,38.911],[-105.843,38.694],[-105.396,38.662],[-105.461,38.166],[-105.134,38.274],[-105.087,38.386],[-104.702,38.386],[-104.475,38.048],[-104.064,38.048],[-103.78,37.643],[-104.057,37.663],[-104.374,37.801],[-104.752,37.406],[-105.159,37.324],[-105.227,37.655],[-105.468,37.729],[-105.587,37.572],[-105.825,37.56],[-105.918,37.746],[-106.03,37.598],[-106.073,37.735],[-106.26,37.576],[-106.44,37.575],[-106.581,37.841],[-106.242,37.914],[-105.994,38.076],[-105.994,38.224],[-105.839,38.25],[-105.929,38.526],[-106.145,38.632],[-106.386,38.628],[-106.253,38.347],[-106.455,38.309],[-106.764,38.096],[-106.854,37.838],[-106.61,37.535],[-106.714,37.533],[-106.631,36.999]],[[-107.279,37.676],[-107.492,37.785],[-107.488,37.648],[-107.279,37.676]],[[-107.279,37.676],[-107.218,37.589],[-106.912,37.568],[-107.142,37.814],[-107.279,37.676]],[[-107.142,37.814],[-107.056,37.978],[-107.232,37.937],[-107.142,37.814]]],[[[-106.03,37.598],[-105.9,37.439],[-105.526,37.344],[-105.393,37.234],[-105.393,36.995],[-105.717,37.004],[-105.818,37.263],[-106.062,37.207],[-106.325,37.304],[-106.26,37.576],[-106.03,37.598]]],[[[-109.05,39.578],[-109.047,40.577],[-109.202,40.859],[-109.482,40.739],[-109.536,40.826],[-109.835,40.769],[-110.001,40.869],[-110.001,40.994],[-108.791,41.001],[-108.784,40.315],[-108.597,40.216],[-108.23,40.216],[-108.222,40.322],[-107.646,40.377],[-107.571,40.188],[-107.646,40.073],[-107.52,39.897],[-107.895,39.9],[-107.913,39.759],[-108.471,39.733],[-109.05,39.578]]],[[[-111.304,38.511],[-110.087,38.501],[-109.94,38.353],[-109.932,38.159],[-111.25,38.153],[-111.304,38.511]]],[[[-111.304,37.54],[-110.753,37.54],[-110.757,37.337],[-110.858,37.349],[-110.93,37.155],[-111.211,37.062],[-111.304,37.54]]]]}},{"type":"Feature","properties":{"id":"WAUW","group":"RMGB"},"geometry":{"type":"MultiPolygon","coordinates":[[[[-105.843,48.01],[-105.519,48.073],[-104.946,48.072],[-104.838,48.117],[-104.298,48.055],[-104.046,48.203],[-104.046,48.634],[-102.887,48.633],[-102.884,48.374],[-102.828,48.372],[-102.83,48.186],[-102.574,48.004],[-102.643,47.825],[-102.643,47.676],[-103.1,47.674],[-103.1,47.329],[-104.045,47.328],[-104.044,47.684],[-104.201,47.682],[-104.201,47.359],[-104.374,47.26],[-104.414,47.359],[-104.705,47.06],[-105.494,46.819],[-106.048,46.477],[-106.052,46.227],[-106.286,46.224],[-106.34,45.793],[-106.592,45.793],[-106.592,46.007],[-106.876,46.064],[-106.955,45.812],[-106.862,45.695],[-107.441,45.792],[-107.434,45.969],[-107.823,45.952],[-107.938,45.855],[-107.938,45.53],[-108.075,45.38],[-108.453,45.334],[-108.676,45.376],[-108.698,45.523],[-108.942,45.529],[-109.115,45.622],[-109.032,45.985],[-109.331,46.058],[-109.688,45.962],[-109.763,46.148],[-110.17,46.259],[-110.167,46.416],[-109.886,46.404],[-109.896,46.53],[-110.267,46.526],[-110.397,46.619],[-110.023,46.675],[-110.03,46.775],[-110.429,46.771],[-110.415,46.944],[-110.17,46.947],[-110.185,47.141],[-111.578,47.091],[-111.578,47.297],[-112.705,47.267],[-112.827,47.383],[-112.827,47.704],[-112.697,47.704],[-112.697,47.911],[-112.251,48.057],[-111.689,48.059],[-111.542,48.261],[-111.171,48.12],[-111.164,47.889],[-110.797,47.794],[-110.516,47.795],[-110.512,47.627],[-109.641,47.627],[-109.277,47.795],[-109.011,47.826],[-108.701,47.627],[-108.053,47.594],[-107.826,47.544],[-107.42,47.688],[-107.114,47.651],[-106.746,47.707],[-106.52,47.836],[-106.404,48.057],[-105.843,48.01]]],[[[-104.046,46.397],[-104.043,45.945],[-102.943,45.945],[-102.961,45.211],[-104.039,45.212],[-104.04,44.998],[-105.036,45.001],[-105.047,45.238],[-105.17,45.345],[-105.004,45.534],[-105.008,45.786],[-104.856,46.154],[-105.173,46.21],[-105.18,46.429],[-104.727,46.495],[-104.608,46.694],[-104.306,46.642],[-104.367,46.469],[-104.046,46.397]],[[-104.054,45.75],[-104.219,45.75],[-104.219,45.53],[-104.122,45.467],[-104.054,45.75]]],[[[-110.912,46.777],[-110.696,46.877],[-110.793,46.653],[-110.912,46.777]]]]}},{"type":"Feature","properties":{"id":"AZPS","group":"DSW"},"geometry":{"type":"MultiPolygon","coordinates":[[[[-110.123,31.334],[-110.131,31.52],[-109.77,31.53],[-109.77,31.412],[-110.123,31.334]]],[[[-109.77,31.412],[-109.482,31.534],[-109.281,31.537],[-109.277,31.334],[-109.77,31.412]]],[[[-113.158,35.495],[-112.892,35.816],[-112.791,36.142],[-112.543,35.942],[-112.445,36.125],[-112.33,36.139],[-111.801,36.005],[-111.671,35.636],[-111.589,35.704],[-111.322,35.567],[-111.283,35.168],[-109.803,35.196],[-109.796,34.665],[-109.9,34.64],[-109.893,34.302],[-110.116,34.223],[-110.231,34.475],[-110.75,34.499],[-110.807,33.99],[-111.2,33.984],[-111.189,33.814],[-111.445,33.998],[-112.157,34.04],[-112.298,33.888],[-112.694,33.987],[-112.975,34.0],[-112.985,34.187],[-113.259,34.348],[-113.335,34.501],[-113.335,35.45],[-113.158,35.495]]],[[[-113.244,32.013],[-113.335,32.099],[-113.335,32.396],[-113.63,32.396],[-113.669,33.021],[-113.457,33.201],[-113.335,33.151],[-113.335,32.6],[-113.252,32.506],[-112.705,32.506],[-112.766,32.838],[-112.687,33.004],[-112.204,32.752],[-112.201,33.194],[-111.819,33.117],[-111.283,33.108],[-111.25,33.465],[-111.041,33.466],[-110.854,33.101],[-110.725,33.067],[-110.451,33.161],[-110.451,31.732],[-110.57,31.732],[-110.591,32.032],[-110.703,32.297],[-110.941,32.366],[-110.861,32.489],[-111.056,32.491],[-111.178,32.114],[-110.98,32.058],[-111.095,31.939],[-110.743,31.732],[-111.164,31.726],[-111.236,31.521],[-111.366,31.424],[-113.244,32.013]]],[[[-114.155,34.259],[-113.651,34.22],[-113.353,34.299],[-113.659,33.781],[-113.335,33.543],[-113.799,33.556],[-113.867,33.654],[-114.278,33.684],[-114.325,34.137],[-114.155,34.259]]],[[[-114.818,32.499],[-114.755,32.642],[-114.526,32.758],[-114.357,32.693],[-114.202,32.411],[-114.424,32.377],[-114.818,32.499]]]]}},{"type":"Feature","properties":{"id":"SRP","group":"DSW"},"geometry":{"type":"Polygon","coordinates":[[[-113.335,33.543],[-113.659,33.781],[-113.353,34.299],[-113.259,34.348],[-112.985,34.187],[-112.975,34.0],[-112.694,33.987],[-112.298,33.888],[-112.157,34.04],[-111.445,33.998],[-111.189,33.814],[-110.944,33.821],[-110.941,33.555],[-111.041,33.466],[-111.25,33.465],[-111.283,33.108],[-111.819,33.117],[-112.201,33.194],[-112.204,32.752],[-112.687,33.004],[-112.766,32.838],[-112.705,32.506],[-113.252,32.506],[-113.335,32.6],[-113.335,33.543]]]}},{"type":"Feature","properties":{"id":"TEPC","group":"DSW"},"geometry":{"type":"MultiPolygon","coordinates":[[[[-110.743,31.732],[-111.095,31.939],[-110.98,32.058],[-111.178,32.114],[-111.056,32.491],[-110.861,32.489],[-110.941,32.366],[-110.703,32.297],[-110.591,32.032],[-110.57,31.732],[-110.743,31.732]]],[[[-114.155,34.259],[-114.188,34.355],[-114.515,34.565],[-114.526,34.747],[-114.584,34.828],[-114.627,35.12],[-114.58,35.209],[-114.677,35.498],[-114.746,36.096],[-114.429,36.136],[-114.163,36.026],[-114.047,36.211],[-113.939,36.169],[-113.651,35.873],[-113.331,35.783],[-113.335,35.603],[-113.605,35.679],[-113.615,35.527],[-113.907,35.51],[-113.853,35.253],[-113.957,35.162],[-113.713,35.089],[-113.702,35.345],[-113.335,35.45],[-113.335,34.501],[-113.259,34.348],[-113.353,34.299],[-113.651,34.22],[-114.155,34.259]],[[-113.669,34.671],[-113.468,34.522],[-113.565,34.715],[-114.263,35.218],[-113.889,34.672],[-113.669,34.671]]]]}},{"type":"Feature","properties":{"id":"PNM","group":"DSW"},"geometry":{"type":"MultiPolygon","coordinates":[[[[-108.209,31.334],[-109.05,31.332],[-109.05,31.527],[-109.281,31.537],[-109.058,31.712],[-109.248,32.034],[-109.05,32.035],[-109.047,32.615],[-108.813,32.613],[-108.701,32.756],[-108.68,33.017],[-108.971,32.982],[-109.047,33.397],[-109.497,33.397],[-109.547,33.622],[-109.724,33.523],[-110.026,33.579],[-110.285,33.762],[-110.667,33.817],[-110.764,33.712],[-110.807,33.99],[-110.75,34.499],[-110.231,34.475],[-110.116,34.223],[-109.893,34.302],[-109.9,34.64],[-109.796,34.665],[-109.803,35.196],[-109.335,35.129],[-109.227,35.025],[-109.331,34.929],[-109.047,34.861],[-109.05,35.223],[-108.669,35.274],[-108.615,35.571],[-108.356,35.581],[-108.114,35.461],[-108.114,35.334],[-107.841,35.394],[-107.924,35.709],[-107.308,35.736],[-107.308,35.84],[-107.114,35.822],[-106.887,35.583],[-106.682,35.278],[-106.325,35.368],[-106.347,35.674],[-106.113,35.594],[-105.972,35.852],[-105.72,35.797],[-105.627,35.979],[-105.85,36.251],[-106.026,36.34],[-106.008,36.667],[-106.667,36.583],[-106.894,36.841],[-107.618,36.805],[-107.499,36.997],[-105.22,36.995],[-105.234,36.79],[-105.353,36.63],[-105.332,36.323],[-105.245,36.262],[-104.759,36.218],[-104.028,36.218],[-104.007,36.905],[-104.057,36.995],[-105.036,36.992],[-105.155,37.072],[-105.159,37.324],[-104.752,37.406],[-104.374,37.801],[-104.057,37.663],[-103.78,37.643],[-103.65,37.44],[-103.539,37.442],[-103.539,37.643],[-103.077,37.645],[-103.086,37.001],[-102.042,36.993],[-102.032,36.501],[-102.164,36.5],[-102.163,35.627],[-103.041,35.621],[-103.042,34.954],[-103.28,34.954],[-103.506,34.691],[-103.708,34.605],[-104.129,34.605],[-104.124,35.142],[-103.859,35.263],[-103.858,35.242],[-103.636,35.241],[-103.638,35.421],[-103.725,35.423],[-103.902,35.689],[-104.385,35.405],[-104.457,35.149],[-104.795,34.675],[-104.612,34.449],[-104.172,34.285],[-104.158,33.875],[-104.851,32.52],[-105.353,32.519],[-105.352,32.962],[-105.316,32.962],[-105.316,33.306],[-105.726,33.306],[-105.728,33.39],[-106.372,33.39],[-106.373,33.48],[-107.999,33.478],[-107.999,33.21],[-107.895,33.203],[-107.769,32.941],[-107.718,32.639],[-107.923,32.604],[-107.925,32.519],[-108.229,32.517],[-108.209,31.334]]],[[[-106.35,35.953],[-106.199,35.787],[-106.401,35.827],[-106.35,35.953]]]]}},{"type":"Feature","properties":{"id":"EPE","group":"DSW"},"geometry":{"type":"Polygon","coordinates":[[[-105.364,30.85],[-106.005,31.397],[-106.17,31.458],[-106.358,31.717],[-106.53,31.782],[-108.208,31.783],[-108.217,32.08],[-108.229,32.079],[-108.229,32.517],[-107.925,32.519],[-107.923,32.604],[-107.718,32.639],[-107.769,32.941],[-107.895,33.203],[-107.999,33.21],[-107.999,33.478],[-106.373,33.48],[-106.372,33.39],[-105.728,33.39],[-105.726,33.306],[-105.316,33.306],[-105.316,32.962],[-105.352,32.962],[-105.353,32.519],[-104.851,32.52],[-104.848,32.0],[-104.919,32.0],[-104.916,30.664],[-104.977,30.631],[-105.364,30.85]]]}},{"type":"Feature","properties":{"id":"WALC","group":"DSW"},"geometry":{"type":"MultiPolygon","coordinates":[[[[-107.308,35.962],[-107.625,36.001],[-107.618,36.805],[-106.894,36.841],[-106.667,36.583],[-106.008,36.667],[-106.026,36.34],[-105.85,36.251],[-105.627,35.979],[-105.72,35.797],[-105.972,35.852],[-106.113,35.594],[-106.347,35.674],[-106.325,35.368],[-106.682,35.278],[-106.887,35.583],[-107.114,35.822],[-107.308,35.84],[-107.308,35.962]],[[-106.401,35.827],[-106.199,35.787],[-106.35,35.953],[-106.401,35.827]]],[[[-109.482,31.534],[-109.77,31.412],[-109.77,31.53],[-110.131,31.52],[-110.123,31.334],[-111.074,31.333],[-111.366,31.424],[-111.236,31.521],[-111.164,31.726],[-110.451,31.732],[-110.451,33.161],[-110.725,33.067],[-110.854,33.101],[-111.041,33.466],[-110.941,33.555],[-110.944,33.821],[-111.189,33.814],[-111.2,33.984],[-110.807,33.99],[-110.764,33.712],[-110.667,33.817],[-110.285,33.762],[-110.026,33.579],[-109.724,33.523],[-109.547,33.622],[-109.497,33.397],[-109.047,33.397],[-108.971,32.982],[-108.68,33.017],[-108.701,32.756],[-108.813,32.613],[-109.047,32.615],[-109.05,32.035],[-109.248,32.034],[-109.058,31.712],[-109.281,31.537],[-109.482,31.534]]],[[[-109.281,31.537],[-109.05,31.527],[-109.05,31.332],[-109.277,31.334],[-109.281,31.537]]],[[[-111.405,37.005],[-112.9,37.001],[-112.904,37.545],[-111.304,37.54],[-111.211,37.062],[-111.405,37.005]]],[[[-111.844,38.151],[-111.848,38.425],[-111.758,38.511],[-111.304,38.511],[-111.25,38.153],[-111.844,38.151]]],[[[-113.471,32.083],[-114.174,32.3],[-114.202,32.411],[-114.357,32.693],[-114.526,32.758],[-114.53,33.032],[-114.706,33.18],[-114.706,33.379],[-114.562,33.516],[-114.512,33.911],[-114.325,34.137],[-114.278,33.684],[-113.867,33.654],[-113.799,33.556],[-113.335,33.543],[-113.335,33.151],[-113.457,33.201],[-113.669,33.021],[-113.63,32.396],[-113.335,32.396],[-113.335,32.099],[-113.471,32.083]]],[[[-113.669,34.671],[-113.889,34.672],[-114.263,35.218],[-113.565,34.715],[-113.669,34.671]]],[[[-114.965,34.555],[-114.965,35.003],[-114.791,35.131],[-114.627,35.12],[-114.584,34.828],[-114.526,34.747],[-114.515,34.565],[-114.965,34.555]]],[[[-116.456,33.427],[-116.877,33.485],[-116.823,33.686],[-116.441,33.642],[-116.337,33.699],[-116.323,33.583],[-116.456,33.427]]],[[[-121.089,37.921],[-120.805,37.97],[-120.369,37.629],[-120.589,37.632],[-120.981,37.739],[-121.089,37.741],[-121.089,37.921]]]]}},{"type":"Feature","properties":{"id":"BANC","group":"CALO"},"geometry":{"type":"MultiPolygon","coordinates":[[[[-121.467,38.26],[-121.604,38.27],[-121.503,38.446],[-121.557,38.737],[-121.276,38.795],[-121.071,38.608],[-121.071,38.292],[-121.467,38.26]]],[[[-123.037,40.364],[-123.004,39.977],[-123.544,40.002],[-123.544,40.736],[-123.598,40.931],[-123.429,40.988],[-123.393,41.161],[-122.914,41.001],[-122.95,41.185],[-122.587,41.357],[-122.453,41.114],[-122.597,40.974],[-122.741,40.666],[-122.695,40.576],[-123.037,40.364]]]]}},{"type":"Feature","properties":{"id":"IID","group":"CALO"},"geometry":{"type":"Polygon","coordinates":[[[-114.755,32.642],[-114.724,32.713],[-116.107,32.619],[-116.103,32.831],[-116.283,33.041],[-116.207,33.429],[-116.323,33.583],[-116.337,33.699],[-116.409,33.948],[-116.337,34.033],[-115.772,34.036],[-115.667,33.858],[-115.127,33.429],[-114.875,33.43],[-114.706,33.18],[-114.53,33.032],[-114.526,32.758],[-114.755,32.642]]]}},{"type":"Feature","properties":{"id":"LDWP","group":"CALO"},"geometry":{"type":"MultiPolygon","coordinates":[[[[-118.094,37.237],[-117.885,36.468],[-117.737,36.466],[-117.604,36.292],[-117.856,36.129],[-118.072,36.132],[-118.141,36.421],[-118.234,36.467],[-118.436,37.038],[-118.583,37.124],[-118.306,37.173],[-118.31,37.281],[-118.094,37.237]]],[[[-118.659,34.169],[-118.544,34.318],[-118.317,34.286],[-118.187,34.133],[-118.396,33.931],[-118.647,34.037],[-118.659,34.169]]]]}},{"type":"Feature","properties":{"id":"TIDC","group":"CALO"},"geometry":{"type":"Polygon","coordinates":[[[-120.589,37.632],[-120.689,37.426],[-120.887,37.361],[-121.204,37.369],[-121.42,37.301],[-121.453,37.403],[-121.197,37.493],[-121.089,37.741],[-120.981,37.739],[-120.589,37.632]]]}},{"type":"Feature","properties":{"id":"DUK","group":"CARO"},"geometry":{"type":"Polygon","coordinates":[[[-80.052,35.302],[-80.034,35.096],[-79.933,35.119],[-79.908,34.841],[-80.092,34.81],[-80.7,34.818],[-80.887,34.664],[-81.107,34.667],[-81.125,34.557],[-81.222,34.622],[-81.316,34.823],[-81.485,34.73],[-81.697,34.735],[-81.643,34.534],[-81.813,34.401],[-82.126,34.044],[-82.72,34.153],[-82.849,34.423],[-83.292,34.654],[-83.278,34.973],[-83.62,34.987],[-83.645,34.889],[-83.753,34.987],[-84.246,34.989],[-84.311,35.079],[-84.217,35.268],[-84.113,35.249],[-83.915,35.474],[-83.825,35.524],[-83.634,35.57],[-83.253,35.696],[-83.173,35.525],[-83.361,35.44],[-83.296,35.248],[-83.109,35.004],[-83.008,35.027],[-82.882,35.312],[-82.691,35.372],[-82.594,35.169],[-82.396,35.212],[-82.176,35.404],[-81.971,35.192],[-81.838,35.183],[-81.705,35.358],[-81.694,35.58],[-81.942,35.774],[-81.744,36.052],[-81.91,36.229],[-81.726,36.365],[-81.675,36.592],[-80.857,36.558],[-78.464,36.543],[-78.547,36.026],[-78.277,35.865],[-78.67,35.548],[-79.08,35.614],[-79.383,35.518],[-79.876,35.51],[-80.052,35.302]]]}},{"type":"Feature","properties":{"id":"CPLE","group":"CARO"},"geometry":{"type":"MultiPolygon","coordinates":[[[[-76.553,35.438],[-76.625,34.989],[-76.434,35.059],[-76.193,34.95],[-76.431,34.764],[-76.539,34.591],[-76.809,34.695],[-77.147,34.63],[-77.381,34.452],[-77.561,34.415],[-77.788,34.215],[-77.984,33.895],[-78.543,33.851],[-79.282,34.478],[-79.469,34.511],[-79.462,34.631],[-79.66,34.695],[-79.674,34.804],[-79.908,34.841],[-79.933,35.119],[-80.034,35.096],[-80.052,35.302],[-79.876,35.51],[-79.383,35.518],[-79.08,35.614],[-78.67,35.548],[-78.277,35.865],[-78.547,36.026],[-78.464,36.543],[-77.943,36.544],[-77.637,36.468],[-77.208,36.059],[-77.37,35.945],[-77.341,35.816],[-76.985,35.658],[-76.654,35.706],[-76.553,35.438]]],[[[-76.495,36.085],[-76.495,36.368],[-76.29,36.224],[-76.29,36.122],[-76.495,36.085]]]]}},{"type":"Feature","properties":{"id":"CPLW","group":"CARO"},"geometry":{"type":"Polygon","coordinates":[[[-83.253,35.696],[-83.317,35.892],[-83.163,36.149],[-82.889,35.949],[-82.594,36.053],[-82.345,36.251],[-82.079,36.106],[-81.91,36.229],[-81.744,36.052],[-81.942,35.774],[-81.694,35.58],[-81.705,35.358],[-81.838,35.183],[-81.971,35.192],[-82.176,35.404],[-82.396,35.212],[-82.594,35.169],[-82.691,35.372],[-82.882,35.312],[-83.008,35.027],[-83.109,35.004],[-83.296,35.248],[-83.361,35.44],[-83.173,35.525],[-83.253,35.696]]]}},{"type":"Feature","properties":{"id":"SCEG","group":"CARO"},"geometry":{"type":"Polygon","coordinates":[[[-81.222,34.622],[-81.125,34.557],[-80.927,34.571],[-80.776,34.363],[-80.574,33.754],[-80.412,33.498],[-80.164,33.457],[-80.146,33.223],[-79.865,33.035],[-79.523,33.188],[-79.429,33.141],[-79.732,32.802],[-80.009,32.679],[-80.081,32.772],[-80.247,32.646],[-80.437,32.367],[-80.704,32.305],[-80.873,32.085],[-81.006,32.21],[-81.114,32.152],[-81.147,32.346],[-81.337,32.564],[-81.528,33.04],[-81.712,33.121],[-81.769,33.263],[-82.147,33.598],[-82.27,33.768],[-82.594,34.02],[-82.587,34.124],[-82.126,34.044],[-81.813,34.401],[-81.654,34.246],[-81.561,34.388],[-81.643,34.534],[-81.697,34.735],[-81.485,34.73],[-81.341,34.568],[-81.222,34.622]]]}},{"type":"Feature","properties":{"id":"SC","group":"CARO"},"geometry":{"type":"MultiPolygon","coordinates":[[[[-79.908,34.841],[-79.674,34.804],[-79.66,34.695],[-79.462,34.631],[-79.469,34.511],[-79.282,34.478],[-78.543,33.851],[-78.717,33.798],[-78.976,33.599],[-79.192,33.208],[-79.429,33.141],[-79.523,33.188],[-79.865,33.035],[-80.146,33.223],[-80.164,33.457],[-80.412,33.498],[-80.574,33.754],[-80.776,34.363],[-80.927,34.571],[-81.125,34.557],[-81.107,34.667],[-80.887,34.664],[-80.7,34.818],[-80.092,34.81],[-79.908,34.841]]],[[[-80.247,32.646],[-80.081,32.772],[-80.009,32.679],[-80.182,32.564],[-80.247,32.646]]],[[[-81.485,34.73],[-81.316,34.823],[-81.222,34.622],[-81.341,34.568],[-81.485,34.73]]],[[[-81.813,34.401],[-81.643,34.534],[-81.561,34.388],[-81.654,34.246],[-81.813,34.401]]]]}},{"type":"Feature","properties":{"id":"FPL","group":"FLA"},"geometry":{"type":"MultiPolygon","coordinates":[[[[-81.575,29.585],[-81.55,29.802],[-81.647,29.838],[-81.607,29.936],[-81.345,30.113],[-81.125,29.48],[-81.154,29.375],[-81.031,29.276],[-80.844,28.891],[-80.851,28.791],[-80.805,28.596],[-80.679,28.718],[-80.563,28.537],[-80.704,28.31],[-80.329,27.593],[-80.113,27.068],[-80.178,26.956],[-80.873,26.959],[-80.887,26.813],[-81.157,26.863],[-81.125,26.968],[-80.707,27.237],[-80.783,27.491],[-80.787,27.863],[-80.927,27.845],[-80.862,28.237],[-80.956,28.347],[-80.898,28.437],[-81.035,28.613],[-81.294,28.579],[-81.165,28.789],[-81.309,28.741],[-81.359,28.872],[-81.539,29.179],[-81.64,29.169],[-81.679,29.325],[-81.42,29.322],[-81.575,29.585]]],[[[-80.783,26.334],[-80.124,26.328],[-80.124,25.974],[-80.873,25.973],[-80.884,25.187],[-81.139,25.173],[-81.06,25.262],[-81.255,25.644],[-81.395,25.793],[-81.683,25.847],[-81.805,26.132],[-81.859,26.448],[-82.209,26.573],[-82.075,26.736],[-82.086,26.959],[-82.277,26.809],[-82.554,27.321],[-82.504,27.414],[-82.72,27.527],[-82.558,27.64],[-82.374,27.518],[-82.392,27.341],[-82.277,27.342],[-82.259,27.092],[-82.003,27.082],[-81.982,27.291],[-81.665,27.295],[-81.564,27.181],[-81.568,26.688],[-81.273,26.422],[-81.269,26.319],[-80.927,26.219],[-80.88,26.376],[-80.783,26.334]]],[[[-82.461,30.584],[-82.23,30.518],[-82.23,30.416],[-82.453,30.124],[-82.795,30.182],[-82.536,30.295],[-82.486,30.414],[-82.612,30.529],[-82.461,30.584]]]]}},{"type":"Feature","properties":{"id":"FPC","group":"FLA"},"geometry":{"type":"MultiPolygon","coordinates":[[[[-82.036,28.96],[-81.658,28.961],[-81.64,28.799],[-81.903,28.706],[-82.036,28.96]]],[[[-81.64,28.799],[-81.359,28.872],[-81.309,28.741],[-81.165,28.789],[-81.294,28.579],[-81.424,28.609],[-81.46,28.195],[-81.093,28.188],[-81.031,28.437],[-80.862,28.237],[-80.927,27.845],[-81.215,27.726],[-81.143,27.626],[-81.219,27.444],[-81.69,27.443],[-81.582,27.531],[-81.683,27.778],[-81.737,27.633],[-81.931,27.643],[-81.924,27.935],[-81.867,28.025],[-81.633,27.969],[-81.719,28.347],[-81.748,28.543],[-81.64,28.799]]],[[[-82.691,28.93],[-82.471,28.938],[-82.572,28.776],[-82.691,28.93]]],[[[-82.471,28.938],[-82.443,29.035],[-82.353,28.991],[-82.335,28.785],[-82.471,28.938]]],[[[-82.407,29.37],[-82.507,29.214],[-82.795,29.523],[-82.655,29.645],[-82.655,29.536],[-82.407,29.37]]],[[[-82.723,28.255],[-82.659,28.152],[-82.626,27.73],[-82.72,27.692],[-82.824,27.913],[-82.723,28.255]]],[[[-84.365,30.222],[-84.415,29.924],[-84.779,29.705],[-84.883,29.794],[-85.078,29.618],[-85.305,29.745],[-85.06,29.877],[-85.017,29.99],[-84.552,30.047],[-84.549,30.249],[-84.365,30.222]]],[[[-84.365,30.222],[-84.077,30.2],[-84.077,30.096],[-84.261,30.106],[-84.365,30.222]]],[[[-85.974,30.402],[-85.737,30.464],[-85.726,30.245],[-85.387,30.302],[-85.391,30.202],[-85.625,30.066],[-85.996,30.29],[-85.974,30.402]]]]}},{"type":"Feature","properties":{"id":"TEC","group":"FLA"},"geometry":{"type":"MultiPolygon","coordinates":[[[[-81.867,28.025],[-81.982,28.261],[-81.719,28.347],[-81.633,27.969],[-81.867,28.025]]],[[[-82.057,28.175],[-82.054,27.959],[-81.924,27.935],[-81.931,27.643],[-82.209,27.726],[-82.18,27.593],[-82.374,27.518],[-82.558,27.64],[-82.626,27.73],[-82.659,28.152],[-82.5,28.243],[-82.41,28.151],[-82.057,28.175]]]]}},{"type":"Feature","properties":{"id":"JEA","group":"FLA"},"geometry":{"type":"MultiPolygon","coordinates":[[[[-81.607,29.936],[-81.701,30.15],[-82.05,30.186],[-82.129,30.363],[-82.018,30.492],[-82.018,30.791],[-81.921,30.817],[-81.431,30.67],[-81.345,30.113],[-81.607,29.936]]],[[[-84.552,30.047],[-85.017,29.99],[-85.143,30.2],[-85.391,30.202],[-85.384,30.524],[-85.495,30.83],[-85.467,30.997],[-85.024,31.0],[-84.876,30.727],[-84.865,30.532],[-84.682,30.416],[-84.653,30.112],[-84.552,30.047]]]]}},{"type":"Feature","properties":{"id":"FMPP","group":"FLA"},"geometry":{"type":"MultiPolygon","coordinates":[[[[-80.887,26.813],[-80.873,26.959],[-80.178,26.956],[-80.045,26.847],[-80.063,26.425],[-80.124,26.328],[-80.783,26.334],[-80.88,26.376],[-80.887,26.813]]],[[[-80.956,28.347],[-81.031,28.437],[-81.093,28.188],[-81.46,28.195],[-81.424,28.609],[-81.294,28.579],[-81.035,28.613],[-80.898,28.437],[-80.956,28.347]]],[[[-82.05,30.186],[-81.701,30.15],[-81.607,29.936],[-81.647,29.838],[-81.96,29.747],[-82.147,29.835],[-82.047,29.938],[-82.05,30.186]]],[[[-82.353,28.991],[-82.443,29.035],[-82.507,29.214],[-82.407,29.37],[-82.389,29.485],[-82.097,29.423],[-82.025,29.495],[-81.741,29.43],[-81.679,29.325],[-81.64,29.169],[-81.658,28.961],[-82.036,28.96],[-82.353,28.991]]],[[[-81.867,28.025],[-81.924,27.935],[-82.054,27.959],[-82.057,28.175],[-81.982,28.261],[-81.867,28.025]]]]}},{"type":"Feature","properties":{"id":"TAL","group":"FLA"},"geometry":{"type":"Polygon","coordinates":[[[-84.261,30.386],[-84.34,30.527],[-84.131,30.449],[-84.261,30.386]]]}},{"type":"Feature","properties":{"id":"GVL","group":"FLA"},"geometry":{"type":"Polygon","coordinates":[[[-82.025,29.495],[-82.097,29.423],[-82.389,29.485],[-82.407,29.37],[-82.655,29.536],[-82.655,29.645],[-82.72,29.853],[-82.536,29.928],[-82.147,29.835],[-81.96,29.747],[-82.025,29.495]]]}},{"type":"Feature","properties":{"id":"SEC","group":"FLA"},"geometry":{"type":"MultiPolygon","coordinates":[[[[-80.887,26.813],[-80.88,26.376],[-80.927,26.219],[-81.269,26.319],[-81.273,26.422],[-81.568,26.688],[-81.564,27.181],[-81.665,27.295],[-81.982,27.291],[-82.003,27.082],[-82.259,27.092],[-82.277,27.342],[-82.392,27.341],[-82.374,27.518],[-82.18,27.593],[-82.209,27.726],[-81.931,27.643],[-81.737,27.633],[-81.683,27.778],[-81.582,27.531],[-81.69,27.443],[-81.219,27.444],[-81.143,27.626],[-81.215,27.726],[-80.927,27.845],[-80.787,27.863],[-80.783,27.491],[-80.707,27.237],[-81.125,26.968],[-81.157,26.863],[-80.887,26.813]]],[[[-82.507,29.214],[-82.443,29.035],[-82.471,28.938],[-82.691,28.93],[-82.608,29.011],[-82.867,29.161],[-83.076,29.189],[-83.71,29.934],[-84.077,30.096],[-84.077,30.2],[-84.549,30.249],[-84.552,30.047],[-84.653,30.112],[-84.682,30.416],[-84.865,30.532],[-84.876,30.727],[-84.624,30.701],[-82.727,30.6],[-82.612,30.529],[-82.486,30.414],[-82.536,30.295],[-82.795,30.182],[-82.453,30.124],[-82.23,30.416],[-82.129,30.363],[-82.05,30.186],[-82.047,29.938],[-82.147,29.835],[-82.536,29.928],[-82.72,29.853],[-82.655,29.645],[-82.795,29.523],[-82.507,29.214]],[[-84.261,30.386],[-84.131,30.449],[-84.34,30.527],[-84.261,30.386]]],[[[-82.471,28.938],[-82.335,28.785],[-82.353,28.991],[-82.036,28.96],[-81.903,28.706],[-81.64,28.799],[-81.748,28.543],[-81.719,28.347],[-81.982,28.261],[-82.057,28.175],[-82.41,28.151],[-82.5,28.243],[-82.659,28.152],[-82.723,28.255],[-82.572,28.776],[-82.471,28.938]]],[[[-81.64,28.799],[-81.658,28.961],[-81.64,29.169],[-81.539,29.179],[-81.359,28.872],[-81.64,28.799]]],[[[-81.679,29.325],[-81.741,29.43],[-82.025,29.495],[-81.96,29.747],[-81.647,29.838],[-81.55,29.802],[-81.575,29.585],[-81.42,29.322],[-81.679,29.325]]]]}},{"type":"Feature","properties":{"id":"HST","group":"FLA"},"geometry":{"type":"Polygon","coordinates":[[[-80.884,25.187],[-80.873,25.973],[-80.124,25.974],[-80.308,25.598],[-80.401,25.192],[-80.643,25.087],[-80.884,25.187]]]}},{"type":"Feature","properties":{"id":"LGEE","group":"CENO"},"geometry":{"type":"MultiPolygon","coordinates":[[[[-83.811,36.749],[-83.562,36.969],[-83.487,36.898],[-83.166,36.904],[-82.979,36.987],[-82.853,36.871],[-83.692,36.583],[-83.811,36.749]]],[[[-84.718,37.9],[-84.941,38.18],[-84.869,38.353],[-84.667,38.343],[-84.268,38.164],[-84.261,37.954],[-84.293,37.852],[-84.617,37.938],[-84.718,37.9]]],[[[-84.718,37.9],[-84.628,37.575],[-84.693,37.487],[-84.858,37.642],[-84.718,37.9]]],[[[-85.783,38.067],[-85.877,38.206],[-85.711,38.282],[-85.416,38.552],[-85.301,38.345],[-85.387,38.177],[-85.69,38.023],[-85.783,38.067]]],[[[-85.783,38.067],[-85.765,37.938],[-86.05,37.808],[-86.1,38.007],[-85.783,38.067]]],[[[-86.035,37.602],[-85.96,37.745],[-85.87,37.639],[-86.035,37.602]]],[[[-87.724,37.177],[-87.583,37.334],[-87.382,37.313],[-87.115,37.472],[-86.95,37.326],[-87.231,37.14],[-87.544,37.08],[-87.724,37.177]]],[[[-89.088,36.746],[-89.11,36.912],[-88.915,36.942],[-88.732,36.833],[-89.088,36.746]]]]}},{"type":"Feature","properties":{"id":"AECI","group":"CENO"},"geometry":{"type":"MultiPolygon","coordinates":[[[[-90.302,36.098],[-90.291,36.201],[-90.068,36.305],[-90.248,36.497],[-94.618,36.5],[-94.607,38.818],[-94.24,38.835],[-94.157,39.17],[-94.355,39.15],[-94.467,39.253],[-94.859,39.275],[-95.108,39.574],[-94.892,39.834],[-95.064,39.863],[-95.421,40.059],[-95.486,40.248],[-95.997,40.261],[-96.065,40.46],[-95.756,40.591],[-95.126,40.579],[-94.91,40.73],[-94.668,40.732],[-94.272,40.616],[-93.722,40.623],[-93.333,40.73],[-93.326,41.008],[-93.239,41.191],[-92.634,41.161],[-92.224,41.008],[-92.174,41.162],[-91.824,41.161],[-91.828,41.28],[-91.371,41.161],[-91.371,40.87],[-91.155,40.653],[-91.36,40.601],[-91.385,40.387],[-91.511,40.123],[-91.428,39.837],[-91.302,39.68],[-90.726,39.252],[-90.712,39.05],[-90.561,38.794],[-90.698,38.659],[-90.748,37.924],[-91.097,37.835],[-91.068,37.588],[-90.572,37.631],[-89.747,37.51],[-89.769,37.297],[-89.463,37.205],[-89.347,37.027],[-89.25,37.064],[-89.11,36.912],[-89.088,36.746],[-89.193,36.634],[-89.571,36.549],[-89.517,36.351],[-89.668,36.208],[-89.592,36.141],[-89.74,36.001],[-90.23,35.996],[-90.302,36.098]]],[[[-90.096,35.361],[-90.212,35.026],[-90.309,34.994],[-90.507,35.185],[-90.503,35.442],[-90.168,35.437],[-90.096,35.361]]],[[[-94.456,34.668],[-95.684,34.711],[-96.09,34.8],[-96.044,35.105],[-95.666,35.229],[-96.45,35.408],[-96.447,35.681],[-97.131,35.739],[-97.134,35.501],[-97.307,35.447],[-97.394,35.587],[-97.394,35.829],[-97.502,35.833],[-97.642,36.184],[-97.113,36.27],[-97.102,36.411],[-96.918,36.411],[-96.962,36.268],[-96.692,36.265],[-96.72,35.942],[-96.108,35.903],[-96.008,36.046],[-96.191,36.151],[-96.155,36.999],[-95.453,36.999],[-95.356,36.889],[-95.432,36.646],[-95.759,36.393],[-95.403,36.355],[-95.406,36.043],[-95.086,36.036],[-94.791,36.109],[-94.805,35.638],[-94.467,35.594],[-94.434,35.385],[-94.456,34.668]]]]}},{"type":"Feature","properties":{"id":"SPA","group":"CENO"},"geometry":{"type":"Polygon","coordinates":[[[-90.302,36.098],[-90.467,35.965],[-90.726,35.966],[-90.824,36.073],[-90.723,36.268],[-90.291,36.201],[-90.302,36.098]]]}}]}